<?xml version="1.0" encoding="UTF-8"?>
<gpx xmlns="http://www.topografix.com/GPX/1/1" version="1.1" creator="FriendlyRando">
  <metadata><name>Pic d'Ayous par le col d'Aas de Bielle</name><desc>Trace d'origine : GPStraces.net (PARCOURS-14km-IBP111). Points de passage : refuges.info et OpenStreetMap.</desc></metadata>
  <wpt lat="42.87227" lon="-0.45175"><ele>1300</ele><name>Cabane de Bious-Oumette</name><type>cabane</type></wpt>
  <wpt lat="42.86604" lon="-0.45348"><name>Lac de Bious-Artigues</name><type>lac</type></wpt>
  <wpt lat="42.86814" lon="-0.47277"><ele>1661</ele><name>Cabane d&apos;Aas de Bielle</name><type>cabane</type></wpt>
  <wpt lat="42.85989" lon="-0.49345"><ele>2098</ele><name>Col d&apos;Aas de Bielle</name><type>col</type></wpt>
  <wpt lat="42.85435" lon="-0.4908"><ele>2288</ele><name>Pic d&apos;Ayous</name><type>sommet</type></wpt>
  <wpt lat="42.85189" lon="-0.49713"><ele>2185</ele><name>Col d&apos;Ayous</name><type>col</type></wpt>
  <wpt lat="42.84838" lon="-0.49112"><ele>1980</ele><name>Refuge d&apos;Ayous</name><type>refuge</type></wpt>
  <wpt lat="42.84821" lon="-0.48777"><ele>1947</ele><name>Lac Gentau</name><type>lac</type></wpt>
  <wpt lat="42.84892" lon="-0.48339"><name>Lac du Miey</name><type>lac</type></wpt>
  <wpt lat="42.85026" lon="-0.47912"><name>Cabane de Roumassot</name><type>cabane</type></wpt>
  <wpt lat="42.84805" lon="-0.47932"><name>Lac Roumassot</name><type>lac</type></wpt>
  <wpt lat="42.85536" lon="-0.46808"><ele>1700</ele><name>Cabane du col long d&apos;Ayous d&apos;en bas</name><type>cabane</type></wpt>
  <wpt lat="42.85383" lon="-0.45801"><name>Pont de Bious</name><type>pont</type></wpt>
  <wpt lat="42.85721" lon="-0.45563"><name>Pont d&apos;Ayous</name><type>pont</type></wpt>
  <wpt lat="42.85834" lon="-0.45455"><name>Source de Hounrède</name><type>source</type></wpt>
  <wpt lat="42.86835" lon="-0.44798"><name>Parking de Bious-Artigues</name><type>parking</type></wpt>
  <wpt lat="42.8434" lon="-0.4381"><ele>2884</ele><name>Pic du Midi d&apos;Ossau</name><type>sommet</type></wpt>
  <trk><name>Pic d'Ayous par le col d'Aas de Bielle</name><trkseg>
    <trkpt lat="42.869793" lon="-0.449536"><ele>1414.7</ele></trkpt>
    <trkpt lat="42.869761" lon="-0.449656"><ele>1414.7</ele></trkpt>
    <trkpt lat="42.869627" lon="-0.449821"><ele>1415</ele></trkpt>
    <trkpt lat="42.86962" lon="-0.450006"><ele>1410.1</ele></trkpt>
    <trkpt lat="42.869544" lon="-0.45031"><ele>1408.8</ele></trkpt>
    <trkpt lat="42.869544" lon="-0.450453"><ele>1408.9</ele></trkpt>
    <trkpt lat="42.869574" lon="-0.450724"><ele>1409</ele></trkpt>
    <trkpt lat="42.869892" lon="-0.451575"><ele>1409</ele></trkpt>
    <trkpt lat="42.870018" lon="-0.45187"><ele>1389</ele></trkpt>
    <trkpt lat="42.869832" lon="-0.452819"><ele>1418.9</ele></trkpt>
    <trkpt lat="42.869679" lon="-0.452727"><ele>1417.8</ele></trkpt>
    <trkpt lat="42.869612" lon="-0.452821"><ele>1416.5</ele></trkpt>
    <trkpt lat="42.869446" lon="-0.452553"><ele>1415</ele></trkpt>
    <trkpt lat="42.86919" lon="-0.452452"><ele>1414</ele></trkpt>
    <trkpt lat="42.869185" lon="-0.452679"><ele>1416.7</ele></trkpt>
    <trkpt lat="42.869103" lon="-0.453112"><ele>1415.5</ele></trkpt>
    <trkpt lat="42.868977" lon="-0.453498"><ele>1415.4</ele></trkpt>
    <trkpt lat="42.868898" lon="-0.453874"><ele>1415.4</ele></trkpt>
    <trkpt lat="42.868953" lon="-0.454153"><ele>1415.4</ele></trkpt>
    <trkpt lat="42.869323" lon="-0.45477"><ele>1418.7</ele></trkpt>
    <trkpt lat="42.869189" lon="-0.455046"><ele>1419.1</ele></trkpt>
    <trkpt lat="42.869115" lon="-0.455352"><ele>1428.2</ele></trkpt>
    <trkpt lat="42.869106" lon="-0.455494"><ele>1428.2</ele></trkpt>
    <trkpt lat="42.869131" lon="-0.455806"><ele>1428.6</ele></trkpt>
    <trkpt lat="42.869234" lon="-0.456106"><ele>1430</ele></trkpt>
    <trkpt lat="42.869324" lon="-0.456254"><ele>1430.1</ele></trkpt>
    <trkpt lat="42.86942" lon="-0.456365"><ele>1430.7</ele></trkpt>
    <trkpt lat="42.869595" lon="-0.456498"><ele>1431.1</ele></trkpt>
    <trkpt lat="42.869771" lon="-0.45647"><ele>1431</ele></trkpt>
    <trkpt lat="42.869541" lon="-0.456826"><ele>1433.6</ele></trkpt>
    <trkpt lat="42.869463" lon="-0.456872"><ele>1432.9</ele></trkpt>
    <trkpt lat="42.869416" lon="-0.456964"><ele>1432.1</ele></trkpt>
    <trkpt lat="42.869405" lon="-0.457091"><ele>1431.6</ele></trkpt>
    <trkpt lat="42.869359" lon="-0.457124"><ele>1430.8</ele></trkpt>
    <trkpt lat="42.869226" lon="-0.457048"><ele>1429.1</ele></trkpt>
    <trkpt lat="42.869145" lon="-0.457071"><ele>1428.1</ele></trkpt>
    <trkpt lat="42.869059" lon="-0.457137"><ele>1428.6</ele></trkpt>
    <trkpt lat="42.869009" lon="-0.45723"><ele>1429.2</ele></trkpt>
    <trkpt lat="42.868959" lon="-0.457403"><ele>1429.8</ele></trkpt>
    <trkpt lat="42.868915" lon="-0.457465"><ele>1430.4</ele></trkpt>
    <trkpt lat="42.868817" lon="-0.457497"><ele>1431.1</ele></trkpt>
    <trkpt lat="42.868733" lon="-0.457555"><ele>1431.8</ele></trkpt>
    <trkpt lat="42.86867" lon="-0.457682"><ele>1431.9</ele></trkpt>
    <trkpt lat="42.868587" lon="-0.457927"><ele>1441</ele></trkpt>
    <trkpt lat="42.868662" lon="-0.458809"><ele>1477.5</ele></trkpt>
    <trkpt lat="42.86878" lon="-0.459903"><ele>1492.8</ele></trkpt>
    <trkpt lat="42.86869" lon="-0.460432"><ele>1493.8</ele></trkpt>
    <trkpt lat="42.868761" lon="-0.4607"><ele>1495.9</ele></trkpt>
    <trkpt lat="42.868664" lon="-0.460837"><ele>1504</ele></trkpt>
    <trkpt lat="42.868617" lon="-0.460903"><ele>1512</ele></trkpt>
    <trkpt lat="42.868662" lon="-0.461277"><ele>1521.1</ele></trkpt>
    <trkpt lat="42.868765" lon="-0.461491"><ele>1524.9</ele></trkpt>
    <trkpt lat="42.868914" lon="-0.461673"><ele>1526.5</ele></trkpt>
    <trkpt lat="42.868938" lon="-0.461792"><ele>1529.1</ele></trkpt>
    <trkpt lat="42.868875" lon="-0.462156"><ele>1531.4</ele></trkpt>
    <trkpt lat="42.868898" lon="-0.462425"><ele>1533.4</ele></trkpt>
    <trkpt lat="42.86893" lon="-0.463605"><ele>1551.6</ele></trkpt>
    <trkpt lat="42.869016" lon="-0.463873"><ele>1556.1</ele></trkpt>
    <trkpt lat="42.869054" lon="-0.464095"><ele>1562.9</ele></trkpt>
    <trkpt lat="42.869048" lon="-0.46429"><ele>1569.6</ele></trkpt>
    <trkpt lat="42.868946" lon="-0.464675"><ele>1576.6</ele></trkpt>
    <trkpt lat="42.868929" lon="-0.46502"><ele>1579.8</ele></trkpt>
    <trkpt lat="42.868977" lon="-0.465343"><ele>1584.2</ele></trkpt>
    <trkpt lat="42.86904" lon="-0.465536"><ele>1588.2</ele></trkpt>
    <trkpt lat="42.869069" lon="-0.46588"><ele>1593.2</ele></trkpt>
    <trkpt lat="42.869177" lon="-0.466099"><ele>1594.7</ele></trkpt>
    <trkpt lat="42.869177" lon="-0.466168"><ele>1596.5</ele></trkpt>
    <trkpt lat="42.869113" lon="-0.466242"><ele>1596.6</ele></trkpt>
    <trkpt lat="42.869073" lon="-0.466399"><ele>1596.3</ele></trkpt>
    <trkpt lat="42.869038" lon="-0.466793"><ele>1597.4</ele></trkpt>
    <trkpt lat="42.869063" lon="-0.466943"><ele>1597.9</ele></trkpt>
    <trkpt lat="42.86917" lon="-0.467187"><ele>1599.1</ele></trkpt>
    <trkpt lat="42.869095" lon="-0.467456"><ele>1599.7</ele></trkpt>
    <trkpt lat="42.869096" lon="-0.467717"><ele>1600.9</ele></trkpt>
    <trkpt lat="42.868953" lon="-0.468881"><ele>1612.5</ele></trkpt>
    <trkpt lat="42.86878" lon="-0.469314"><ele>1622.9</ele></trkpt>
    <trkpt lat="42.868617" lon="-0.469984"><ele>1635.8</ele></trkpt>
    <trkpt lat="42.868482" lon="-0.471018"><ele>1648.7</ele></trkpt>
    <trkpt lat="42.868559" lon="-0.471294"><ele>1652.7</ele></trkpt>
    <trkpt lat="42.868537" lon="-0.471673"><ele>1656.4</ele></trkpt>
    <trkpt lat="42.868458" lon="-0.472048"><ele>1659.1</ele></trkpt>
    <trkpt lat="42.868466" lon="-0.472241"><ele>1659.2</ele></trkpt>
    <trkpt lat="42.868387" lon="-0.472499"><ele>1660.8</ele></trkpt>
    <trkpt lat="42.86823" lon="-0.472595"><ele>1661</ele></trkpt>
    <trkpt lat="42.868206" lon="-0.472821"><ele>1661.8</ele></trkpt>
    <trkpt lat="42.868222" lon="-0.473132"><ele>1662.4</ele></trkpt>
    <trkpt lat="42.868214" lon="-0.473422"><ele>1663</ele></trkpt>
    <trkpt lat="42.86817" lon="-0.473551"><ele>1673</ele></trkpt>
    <trkpt lat="42.86801" lon="-0.474122"><ele>1679.8</ele></trkpt>
    <trkpt lat="42.867853" lon="-0.474299"><ele>1680.9</ele></trkpt>
    <trkpt lat="42.867782" lon="-0.47457"><ele>1680.7</ele></trkpt>
    <trkpt lat="42.867601" lon="-0.474784"><ele>1679.6</ele></trkpt>
    <trkpt lat="42.8672" lon="-0.475127"><ele>1680.6</ele></trkpt>
    <trkpt lat="42.866972" lon="-0.475439"><ele>1680.5</ele></trkpt>
    <trkpt lat="42.866618" lon="-0.475675"><ele>1680</ele></trkpt>
    <trkpt lat="42.866524" lon="-0.475999"><ele>1681.2</ele></trkpt>
    <trkpt lat="42.866255" lon="-0.476318"><ele>1683</ele></trkpt>
    <trkpt lat="42.865886" lon="-0.476951"><ele>1686.8</ele></trkpt>
    <trkpt lat="42.865902" lon="-0.477232"><ele>1686.3</ele></trkpt>
    <trkpt lat="42.865533" lon="-0.477735"><ele>1686.2</ele></trkpt>
    <trkpt lat="42.86547" lon="-0.478045"><ele>1687.9</ele></trkpt>
    <trkpt lat="42.865257" lon="-0.478335"><ele>1688.5</ele></trkpt>
    <trkpt lat="42.864778" lon="-0.47908"><ele>1688.6</ele></trkpt>
    <trkpt lat="42.8645" lon="-0.47923"><ele>1690</ele></trkpt>
    <trkpt lat="42.864326" lon="-0.479472"><ele>1704.8</ele></trkpt>
    <trkpt lat="42.86435" lon="-0.479897"><ele>1709.5</ele></trkpt>
    <trkpt lat="42.86434" lon="-0.480259"><ele>1715.2</ele></trkpt>
    <trkpt lat="42.864135" lon="-0.4811"><ele>1723.6</ele></trkpt>
    <trkpt lat="42.864043" lon="-0.481237"><ele>1723.6</ele></trkpt>
    <trkpt lat="42.864008" lon="-0.481513"><ele>1726.4</ele></trkpt>
    <trkpt lat="42.863882" lon="-0.481807"><ele>1733.4</ele></trkpt>
    <trkpt lat="42.863797" lon="-0.482823"><ele>1752.8</ele></trkpt>
    <trkpt lat="42.863592" lon="-0.483901"><ele>1803.2</ele></trkpt>
    <trkpt lat="42.863387" lon="-0.484359"><ele>1810.8</ele></trkpt>
    <trkpt lat="42.863249" lon="-0.484876"><ele>1821.1</ele></trkpt>
    <trkpt lat="42.863211" lon="-0.485203"><ele>1830.6</ele></trkpt>
    <trkpt lat="42.863049" lon="-0.485266"><ele>1830.9</ele></trkpt>
    <trkpt lat="42.863044" lon="-0.485494"><ele>1832.9</ele></trkpt>
    <trkpt lat="42.862895" lon="-0.485847"><ele>1836.7</ele></trkpt>
    <trkpt lat="42.862579" lon="-0.486178"><ele>1848.3</ele></trkpt>
    <trkpt lat="42.862357" lon="-0.486498"><ele>1851</ele></trkpt>
    <trkpt lat="42.861973" lon="-0.486605"><ele>1871.7</ele></trkpt>
    <trkpt lat="42.861627" lon="-0.48708"><ele>1904.3</ele></trkpt>
    <trkpt lat="42.860995" lon="-0.48821"><ele>1978.9</ele></trkpt>
    <trkpt lat="42.860875" lon="-0.488473"><ele>1985</ele></trkpt>
    <trkpt lat="42.860707" lon="-0.488515"><ele>2003.4</ele></trkpt>
    <trkpt lat="42.860528" lon="-0.48886"><ele>2004.1</ele></trkpt>
    <trkpt lat="42.860394" lon="-0.489384"><ele>2020</ele></trkpt>
    <trkpt lat="42.86031" lon="-0.489617"><ele>2030.3</ele></trkpt>
    <trkpt lat="42.860264" lon="-0.490219"><ele>2049.7</ele></trkpt>
    <trkpt lat="42.860064" lon="-0.490367"><ele>2053.9</ele></trkpt>
    <trkpt lat="42.859921" lon="-0.490618"><ele>2058.7</ele></trkpt>
    <trkpt lat="42.859798" lon="-0.490881"><ele>2060.6</ele></trkpt>
    <trkpt lat="42.859777" lon="-0.491099"><ele>2061.5</ele></trkpt>
    <trkpt lat="42.859672" lon="-0.491223"><ele>2059.6</ele></trkpt>
    <trkpt lat="42.859697" lon="-0.491392"><ele>2059.5</ele></trkpt>
    <trkpt lat="42.859856" lon="-0.491563"><ele>2057.3</ele></trkpt>
    <trkpt lat="42.860314" lon="-0.491611"><ele>2056.2</ele></trkpt>
    <trkpt lat="42.860473" lon="-0.491789"><ele>2059</ele></trkpt>
    <trkpt lat="42.860703" lon="-0.49178"><ele>2068</ele></trkpt>
    <trkpt lat="42.860591" lon="-0.492003"><ele>2076.8</ele></trkpt>
    <trkpt lat="42.860464" lon="-0.492193"><ele>2078.6</ele></trkpt>
    <trkpt lat="42.860208" lon="-0.492668"><ele>2080.7</ele></trkpt>
    <trkpt lat="42.86017" lon="-0.492934"><ele>2090</ele></trkpt>
    <trkpt lat="42.860139" lon="-0.493071"><ele>2077.5</ele></trkpt>
    <trkpt lat="42.85989" lon="-0.493454"><ele>2065.7</ele></trkpt>
    <trkpt lat="42.859867" lon="-0.49348"><ele>2061</ele></trkpt>
    <trkpt lat="42.859395" lon="-0.494008"><ele>2056.3</ele></trkpt>
    <trkpt lat="42.859024" lon="-0.494308"><ele>2042</ele></trkpt>
    <trkpt lat="42.85852" lon="-0.494446"><ele>2039.5</ele></trkpt>
    <trkpt lat="42.858193" lon="-0.494386"><ele>2044.5</ele></trkpt>
    <trkpt lat="42.857783" lon="-0.494515"><ele>2051</ele></trkpt>
    <trkpt lat="42.857154" lon="-0.494815"><ele>2065.3</ele></trkpt>
    <trkpt lat="42.856537" lon="-0.49442"><ele>2086.7</ele></trkpt>
    <trkpt lat="42.856178" lon="-0.494326"><ele>2105.3</ele></trkpt>
    <trkpt lat="42.855756" lon="-0.494248"><ele>2138.6</ele></trkpt>
    <trkpt lat="42.855403" lon="-0.494274"><ele>2154.8</ele></trkpt>
    <trkpt lat="42.85493" lon="-0.494389"><ele>2168.4</ele></trkpt>
    <trkpt lat="42.854755" lon="-0.494386"><ele>2174.3</ele></trkpt>
    <trkpt lat="42.854668" lon="-0.494332"><ele>2175.1</ele></trkpt>
    <trkpt lat="42.854615" lon="-0.494248"><ele>2176</ele></trkpt>
    <trkpt lat="42.854479" lon="-0.49416"><ele>2177</ele></trkpt>
    <trkpt lat="42.85437" lon="-0.494226"><ele>2179.5</ele></trkpt>
    <trkpt lat="42.854277" lon="-0.494063"><ele>2180.7</ele></trkpt>
    <trkpt lat="42.854305" lon="-0.493805"><ele>2181</ele></trkpt>
    <trkpt lat="42.854116" lon="-0.493973"><ele>2181.3</ele></trkpt>
    <trkpt lat="42.85412" lon="-0.493878"><ele>2180.5</ele></trkpt>
    <trkpt lat="42.853927" lon="-0.494028"><ele>2181.6</ele></trkpt>
    <trkpt lat="42.853928" lon="-0.493809"><ele>2180.8</ele></trkpt>
    <trkpt lat="42.853682" lon="-0.493986"><ele>2180</ele></trkpt>
    <trkpt lat="42.853608" lon="-0.493893"><ele>2186</ele></trkpt>
    <trkpt lat="42.853567" lon="-0.49384"><ele>2192</ele></trkpt>
    <trkpt lat="42.853606" lon="-0.493453"><ele>2192.8</ele></trkpt>
    <trkpt lat="42.853594" lon="-0.493165"><ele>2192.5</ele></trkpt>
    <trkpt lat="42.853635" lon="-0.492878"><ele>2196.8</ele></trkpt>
    <trkpt lat="42.853616" lon="-0.492757"><ele>2200.8</ele></trkpt>
    <trkpt lat="42.85372" lon="-0.492267"><ele>2210.4</ele></trkpt>
    <trkpt lat="42.854047" lon="-0.491688"><ele>2220.7</ele></trkpt>
    <trkpt lat="42.854224" lon="-0.491473"><ele>2225.4</ele></trkpt>
    <trkpt lat="42.854416" lon="-0.491371"><ele>2226.2</ele></trkpt>
    <trkpt lat="42.854573" lon="-0.491354"><ele>2226.9</ele></trkpt>
    <trkpt lat="42.854821" lon="-0.491282"><ele>2225.7</ele></trkpt>
    <trkpt lat="42.85485" lon="-0.491198"><ele>2244</ele></trkpt>
    <trkpt lat="42.854605" lon="-0.49109"><ele>2243.2</ele></trkpt>
    <trkpt lat="42.854512" lon="-0.490975"><ele>2243</ele></trkpt>
    <trkpt lat="42.854456" lon="-0.490952"><ele>2242.9</ele></trkpt>
    <trkpt lat="42.854431" lon="-0.490866"><ele>2242.7</ele></trkpt>
    <trkpt lat="42.854355" lon="-0.490805"><ele>2239</ele></trkpt>
    <trkpt lat="42.854431" lon="-0.490866"><ele>2242.7</ele></trkpt>
    <trkpt lat="42.854456" lon="-0.490952"><ele>2242.9</ele></trkpt>
    <trkpt lat="42.854512" lon="-0.490975"><ele>2243</ele></trkpt>
    <trkpt lat="42.854605" lon="-0.49109"><ele>2243.2</ele></trkpt>
    <trkpt lat="42.85485" lon="-0.491198"><ele>2244</ele></trkpt>
    <trkpt lat="42.854821" lon="-0.491282"><ele>2225.7</ele></trkpt>
    <trkpt lat="42.854573" lon="-0.491354"><ele>2226.9</ele></trkpt>
    <trkpt lat="42.854416" lon="-0.491371"><ele>2226.2</ele></trkpt>
    <trkpt lat="42.854224" lon="-0.491473"><ele>2225.4</ele></trkpt>
    <trkpt lat="42.854047" lon="-0.491688"><ele>2220.7</ele></trkpt>
    <trkpt lat="42.85372" lon="-0.492267"><ele>2210.4</ele></trkpt>
    <trkpt lat="42.853616" lon="-0.492757"><ele>2200.8</ele></trkpt>
    <trkpt lat="42.853635" lon="-0.492878"><ele>2196.8</ele></trkpt>
    <trkpt lat="42.853594" lon="-0.493165"><ele>2192.5</ele></trkpt>
    <trkpt lat="42.853606" lon="-0.493453"><ele>2192.8</ele></trkpt>
    <trkpt lat="42.853567" lon="-0.49384"><ele>2192</ele></trkpt>
    <trkpt lat="42.853554" lon="-0.494012"><ele>2194.3</ele></trkpt>
    <trkpt lat="42.85349" lon="-0.494211"><ele>2194.9</ele></trkpt>
    <trkpt lat="42.853503" lon="-0.494261"><ele>2195.5</ele></trkpt>
    <trkpt lat="42.853684" lon="-0.494375"><ele>2196</ele></trkpt>
    <trkpt lat="42.853708" lon="-0.494441"><ele>2196.4</ele></trkpt>
    <trkpt lat="42.853657" lon="-0.494913"><ele>2198</ele></trkpt>
    <trkpt lat="42.853611" lon="-0.495015"><ele>2196.5</ele></trkpt>
    <trkpt lat="42.853525" lon="-0.495109"><ele>2179</ele></trkpt>
    <trkpt lat="42.853324" lon="-0.495273"><ele>2183.4</ele></trkpt>
    <trkpt lat="42.85323" lon="-0.49542"><ele>2184</ele></trkpt>
    <trkpt lat="42.853079" lon="-0.49571"><ele>2184</ele></trkpt>
    <trkpt lat="42.852811" lon="-0.495874"><ele>2184.3</ele></trkpt>
    <trkpt lat="42.852615" lon="-0.495965"><ele>2184</ele></trkpt>
    <trkpt lat="42.852491" lon="-0.49608"><ele>2183.3</ele></trkpt>
    <trkpt lat="42.852408" lon="-0.49623"><ele>2182.9</ele></trkpt>
    <trkpt lat="42.852325" lon="-0.496316"><ele>2182.7</ele></trkpt>
    <trkpt lat="42.852274" lon="-0.496485"><ele>2181</ele></trkpt>
    <trkpt lat="42.852095" lon="-0.496941"><ele>2179</ele></trkpt>
    <trkpt lat="42.851887" lon="-0.49713"><ele>2179</ele></trkpt>
    <trkpt lat="42.851796" lon="-0.497066"><ele>2174</ele></trkpt>
    <trkpt lat="42.851809" lon="-0.496977"><ele>2173.1</ele></trkpt>
    <trkpt lat="42.851799" lon="-0.496659"><ele>2168.8</ele></trkpt>
    <trkpt lat="42.851912" lon="-0.496338"><ele>2166.1</ele></trkpt>
    <trkpt lat="42.852007" lon="-0.496002"><ele>2163.8</ele></trkpt>
    <trkpt lat="42.852004" lon="-0.495852"><ele>2154.7</ele></trkpt>
    <trkpt lat="42.851869" lon="-0.495962"><ele>2162.4</ele></trkpt>
    <trkpt lat="42.851839" lon="-0.495943"><ele>2161.8</ele></trkpt>
    <trkpt lat="42.851798" lon="-0.495803"><ele>2153.1</ele></trkpt>
    <trkpt lat="42.851762" lon="-0.495145"><ele>2146.3</ele></trkpt>
    <trkpt lat="42.851811" lon="-0.494616"><ele>2125.1</ele></trkpt>
    <trkpt lat="42.851968" lon="-0.494233"><ele>2117.4</ele></trkpt>
    <trkpt lat="42.852065" lon="-0.4941"><ele>2110.3</ele></trkpt>
    <trkpt lat="42.851877" lon="-0.494133"><ele>2114.2</ele></trkpt>
    <trkpt lat="42.851855" lon="-0.494102"><ele>2109.3</ele></trkpt>
    <trkpt lat="42.851863" lon="-0.494051"><ele>2108.8</ele></trkpt>
    <trkpt lat="42.851921" lon="-0.493882"><ele>2106.8</ele></trkpt>
    <trkpt lat="42.852031" lon="-0.493659"><ele>2104.6</ele></trkpt>
    <trkpt lat="42.852197" lon="-0.493192"><ele>2099.9</ele></trkpt>
    <trkpt lat="42.852132" lon="-0.493265"><ele>2102.2</ele></trkpt>
    <trkpt lat="42.852036" lon="-0.493325"><ele>2102.9</ele></trkpt>
    <trkpt lat="42.851955" lon="-0.493323"><ele>2103.6</ele></trkpt>
    <trkpt lat="42.85192" lon="-0.493287"><ele>2104.4</ele></trkpt>
    <trkpt lat="42.852071" lon="-0.49302"><ele>2103.3</ele></trkpt>
    <trkpt lat="42.852093" lon="-0.492849"><ele>2103.1</ele></trkpt>
    <trkpt lat="42.852172" lon="-0.492658"><ele>2103.8</ele></trkpt>
    <trkpt lat="42.852179" lon="-0.492567"><ele>2103.9</ele></trkpt>
    <trkpt lat="42.852101" lon="-0.492611"><ele>2084</ele></trkpt>
    <trkpt lat="42.851963" lon="-0.492621"><ele>2045.3</ele></trkpt>
    <trkpt lat="42.851832" lon="-0.492687"><ele>2042.1</ele></trkpt>
    <trkpt lat="42.851688" lon="-0.492618"><ele>2036.6</ele></trkpt>
    <trkpt lat="42.85159" lon="-0.492488"><ele>2032.9</ele></trkpt>
    <trkpt lat="42.851565" lon="-0.4921"><ele>2034</ele></trkpt>
    <trkpt lat="42.851411" lon="-0.491905"><ele>2034.6</ele></trkpt>
    <trkpt lat="42.851225" lon="-0.491772"><ele>2035.3</ele></trkpt>
    <trkpt lat="42.851052" lon="-0.491823"><ele>2032.2</ele></trkpt>
    <trkpt lat="42.850913" lon="-0.491799"><ele>2032.7</ele></trkpt>
    <trkpt lat="42.850514" lon="-0.491834"><ele>2023</ele></trkpt>
    <trkpt lat="42.84987" lon="-0.491799"><ele>1994.7</ele></trkpt>
    <trkpt lat="42.84954" lon="-0.491751"><ele>1986.3</ele></trkpt>
    <trkpt lat="42.849061" lon="-0.491759"><ele>1977.1</ele></trkpt>
    <trkpt lat="42.848961" lon="-0.491701"><ele>1978</ele></trkpt>
    <trkpt lat="42.848786" lon="-0.491448"><ele>1979.6</ele></trkpt>
    <trkpt lat="42.848669" lon="-0.491411"><ele>1980.3</ele></trkpt>
    <trkpt lat="42.848537" lon="-0.491078"><ele>1974</ele></trkpt>
    <trkpt lat="42.848578" lon="-0.491179"><ele>1977.2</ele></trkpt>
    <trkpt lat="42.848537" lon="-0.491078"><ele>1974</ele></trkpt>
    <trkpt lat="42.848647" lon="-0.491049"><ele>1970</ele></trkpt>
    <trkpt lat="42.848691" lon="-0.491003"><ele>1970.2</ele></trkpt>
    <trkpt lat="42.848735" lon="-0.490864"><ele>1970.2</ele></trkpt>
    <trkpt lat="42.848928" lon="-0.490692"><ele>1969.5</ele></trkpt>
    <trkpt lat="42.84894" lon="-0.490664"><ele>1969.5</ele></trkpt>
    <trkpt lat="42.848887" lon="-0.490459"><ele>1969.4</ele></trkpt>
    <trkpt lat="42.848893" lon="-0.490421"><ele>1969.4</ele></trkpt>
    <trkpt lat="42.84895" lon="-0.490374"><ele>1969.4</ele></trkpt>
    <trkpt lat="42.849018" lon="-0.490281"><ele>1968.9</ele></trkpt>
    <trkpt lat="42.849076" lon="-0.490166"><ele>1968.9</ele></trkpt>
    <trkpt lat="42.849154" lon="-0.4899"><ele>1967.5</ele></trkpt>
    <trkpt lat="42.849201" lon="-0.489548"><ele>1966.5</ele></trkpt>
    <trkpt lat="42.849184" lon="-0.489225"><ele>1964.5</ele></trkpt>
    <trkpt lat="42.849227" lon="-0.489024"><ele>1963.3</ele></trkpt>
    <trkpt lat="42.849266" lon="-0.488918"><ele>1962.7</ele></trkpt>
    <trkpt lat="42.849503" lon="-0.488579"><ele>1957</ele></trkpt>
    <trkpt lat="42.84963" lon="-0.488243"><ele>1953.8</ele></trkpt>
    <trkpt lat="42.849639" lon="-0.488096"><ele>1952</ele></trkpt>
    <trkpt lat="42.849722" lon="-0.48794"><ele>1948</ele></trkpt>
    <trkpt lat="42.849942" lon="-0.487123"><ele>1942</ele></trkpt>
    <trkpt lat="42.849924" lon="-0.486918"><ele>1940.7</ele></trkpt>
    <trkpt lat="42.849977" lon="-0.486731"><ele>1940.6</ele></trkpt>
    <trkpt lat="42.850113" lon="-0.486571"><ele>1939.9</ele></trkpt>
    <trkpt lat="42.850182" lon="-0.486369"><ele>1938.9</ele></trkpt>
    <trkpt lat="42.850322" lon="-0.486181"><ele>1938.4</ele></trkpt>
    <trkpt lat="42.85044" lon="-0.486066"><ele>1937.4</ele></trkpt>
    <trkpt lat="42.850481" lon="-0.485884"><ele>1936.8</ele></trkpt>
    <trkpt lat="42.850538" lon="-0.485832"><ele>1936.2</ele></trkpt>
    <trkpt lat="42.850536" lon="-0.485772"><ele>1936.3</ele></trkpt>
    <trkpt lat="42.850555" lon="-0.485735"><ele>1936.1</ele></trkpt>
    <trkpt lat="42.85055" lon="-0.485532"><ele>1936.2</ele></trkpt>
    <trkpt lat="42.850525" lon="-0.485415"><ele>1935.8</ele></trkpt>
    <trkpt lat="42.850303" lon="-0.48522"><ele>1935.2</ele></trkpt>
    <trkpt lat="42.85013" lon="-0.48482"><ele>1933.7</ele></trkpt>
    <trkpt lat="42.850103" lon="-0.484359"><ele>1932.5</ele></trkpt>
    <trkpt lat="42.850181" lon="-0.483977"><ele>1929.1</ele></trkpt>
    <trkpt lat="42.850144" lon="-0.483747"><ele>1928.2</ele></trkpt>
    <trkpt lat="42.850262" lon="-0.483505"><ele>1927.5</ele></trkpt>
    <trkpt lat="42.850346" lon="-0.483287"><ele>1926.3</ele></trkpt>
    <trkpt lat="42.850374" lon="-0.48305"><ele>1926.3</ele></trkpt>
    <trkpt lat="42.850422" lon="-0.482899"><ele>1925.7</ele></trkpt>
    <trkpt lat="42.850453" lon="-0.48266"><ele>1925</ele></trkpt>
    <trkpt lat="42.850535" lon="-0.482477"><ele>1924</ele></trkpt>
    <trkpt lat="42.850545" lon="-0.482414"><ele>1924.7</ele></trkpt>
    <trkpt lat="42.850528" lon="-0.482338"><ele>1916</ele></trkpt>
    <trkpt lat="42.850235" lon="-0.481808"><ele>1911.9</ele></trkpt>
    <trkpt lat="42.850158" lon="-0.481566"><ele>1907.7</ele></trkpt>
    <trkpt lat="42.850022" lon="-0.48144"><ele>1906.1</ele></trkpt>
    <trkpt lat="42.84998" lon="-0.481422"><ele>1905.7</ele></trkpt>
    <trkpt lat="42.84992" lon="-0.481282"><ele>1904.8</ele></trkpt>
    <trkpt lat="42.849934" lon="-0.481083"><ele>1903.6</ele></trkpt>
    <trkpt lat="42.849964" lon="-0.481044"><ele>1903</ele></trkpt>
    <trkpt lat="42.850016" lon="-0.481051"><ele>1902.8</ele></trkpt>
    <trkpt lat="42.850031" lon="-0.481"><ele>1902.3</ele></trkpt>
    <trkpt lat="42.850057" lon="-0.480989"><ele>1901.9</ele></trkpt>
    <trkpt lat="42.850118" lon="-0.481024"><ele>1901.5</ele></trkpt>
    <trkpt lat="42.850127" lon="-0.481009"><ele>1901</ele></trkpt>
    <trkpt lat="42.850088" lon="-0.480933"><ele>1898.8</ele></trkpt>
    <trkpt lat="42.850129" lon="-0.480885"><ele>1898.3</ele></trkpt>
    <trkpt lat="42.850125" lon="-0.480708"><ele>1897.3</ele></trkpt>
    <trkpt lat="42.850198" lon="-0.480602"><ele>1895.9</ele></trkpt>
    <trkpt lat="42.850157" lon="-0.480389"><ele>1895.2</ele></trkpt>
    <trkpt lat="42.850219" lon="-0.48033"><ele>1894.6</ele></trkpt>
    <trkpt lat="42.850265" lon="-0.480175"><ele>1892.8</ele></trkpt>
    <trkpt lat="42.850226" lon="-0.480186"><ele>1892.5</ele></trkpt>
    <trkpt lat="42.850055" lon="-0.480329"><ele>1892.8</ele></trkpt>
    <trkpt lat="42.850074" lon="-0.480192"><ele>1892</ele></trkpt>
    <trkpt lat="42.850037" lon="-0.480029"><ele>1891.5</ele></trkpt>
    <trkpt lat="42.850066" lon="-0.479979"><ele>1890.7</ele></trkpt>
    <trkpt lat="42.850046" lon="-0.47994"><ele>1890.8</ele></trkpt>
    <trkpt lat="42.849998" lon="-0.479932"><ele>1891</ele></trkpt>
    <trkpt lat="42.849992" lon="-0.479795"><ele>1891.6</ele></trkpt>
    <trkpt lat="42.850013" lon="-0.47972"><ele>1891.8</ele></trkpt>
    <trkpt lat="42.850068" lon="-0.479629"><ele>1892</ele></trkpt>
    <trkpt lat="42.850062" lon="-0.479531"><ele>1891.4</ele></trkpt>
    <trkpt lat="42.850096" lon="-0.479417"><ele>1890.9</ele></trkpt>
    <trkpt lat="42.850092" lon="-0.479309"><ele>1891.1</ele></trkpt>
    <trkpt lat="42.85006" lon="-0.479215"><ele>1890.9</ele></trkpt>
    <trkpt lat="42.849998" lon="-0.479121"><ele>1886.4</ele></trkpt>
    <trkpt lat="42.849744" lon="-0.478893"><ele>1883.5</ele></trkpt>
    <trkpt lat="42.849589" lon="-0.478694"><ele>1880.4</ele></trkpt>
    <trkpt lat="42.849062" lon="-0.477836"><ele>1854.2</ele></trkpt>
    <trkpt lat="42.848942" lon="-0.477549"><ele>1852.7</ele></trkpt>
    <trkpt lat="42.848913" lon="-0.477399"><ele>1851.3</ele></trkpt>
    <trkpt lat="42.848949" lon="-0.476893"><ele>1847.3</ele></trkpt>
    <trkpt lat="42.849016" lon="-0.476587"><ele>1847.3</ele></trkpt>
    <trkpt lat="42.849088" lon="-0.476444"><ele>1847.2</ele></trkpt>
    <trkpt lat="42.84921" lon="-0.476326"><ele>1847.2</ele></trkpt>
    <trkpt lat="42.849305" lon="-0.47619"><ele>1847.1</ele></trkpt>
    <trkpt lat="42.849376" lon="-0.476144"><ele>1847.1</ele></trkpt>
    <trkpt lat="42.849497" lon="-0.475978"><ele>1846.4</ele></trkpt>
    <trkpt lat="42.849559" lon="-0.475842"><ele>1845.8</ele></trkpt>
    <trkpt lat="42.849823" lon="-0.47562"><ele>1835</ele></trkpt>
    <trkpt lat="42.849925" lon="-0.47541"><ele>1827</ele></trkpt>
    <trkpt lat="42.85012" lon="-0.475118"><ele>1825</ele></trkpt>
    <trkpt lat="42.850261" lon="-0.474854"><ele>1812</ele></trkpt>
    <trkpt lat="42.850241" lon="-0.474574"><ele>1801.3</ele></trkpt>
    <trkpt lat="42.850396" lon="-0.474087"><ele>1796.4</ele></trkpt>
    <trkpt lat="42.850785" lon="-0.473405"><ele>1792.6</ele></trkpt>
    <trkpt lat="42.851024" lon="-0.473225"><ele>1789.6</ele></trkpt>
    <trkpt lat="42.851207" lon="-0.473148"><ele>1788.1</ele></trkpt>
    <trkpt lat="42.851415" lon="-0.472986"><ele>1788.2</ele></trkpt>
    <trkpt lat="42.851787" lon="-0.472963"><ele>1783.4</ele></trkpt>
    <trkpt lat="42.851894" lon="-0.473074"><ele>1781.7</ele></trkpt>
    <trkpt lat="42.851997" lon="-0.473132"><ele>1779.3</ele></trkpt>
    <trkpt lat="42.852258" lon="-0.473119"><ele>1776.8</ele></trkpt>
    <trkpt lat="42.852467" lon="-0.473036"><ele>1773.3</ele></trkpt>
    <trkpt lat="42.852759" lon="-0.472745"><ele>1766.6</ele></trkpt>
    <trkpt lat="42.852815" lon="-0.472651"><ele>1765.4</ele></trkpt>
    <trkpt lat="42.853022" lon="-0.472411"><ele>1763.3</ele></trkpt>
    <trkpt lat="42.853052" lon="-0.472264"><ele>1762.4</ele></trkpt>
    <trkpt lat="42.853147" lon="-0.472057"><ele>1760.5</ele></trkpt>
    <trkpt lat="42.853287" lon="-0.471527"><ele>1757.1</ele></trkpt>
    <trkpt lat="42.853432" lon="-0.471368"><ele>1755.6</ele></trkpt>
    <trkpt lat="42.853661" lon="-0.47117"><ele>1750.9</ele></trkpt>
    <trkpt lat="42.853736" lon="-0.470883"><ele>1748.5</ele></trkpt>
    <trkpt lat="42.854094" lon="-0.47024"><ele>1739.7</ele></trkpt>
    <trkpt lat="42.854208" lon="-0.470193"><ele>1738.4</ele></trkpt>
    <trkpt lat="42.854252" lon="-0.469833"><ele>1733.2</ele></trkpt>
    <trkpt lat="42.85424" lon="-0.469679"><ele>1733.7</ele></trkpt>
    <trkpt lat="42.854289" lon="-0.4694"><ele>1732.6</ele></trkpt>
    <trkpt lat="42.854263" lon="-0.469104"><ele>1731.3</ele></trkpt>
    <trkpt lat="42.85417" lon="-0.46867"><ele>1716</ele></trkpt>
    <trkpt lat="42.854127" lon="-0.468546"><ele>1695.4</ele></trkpt>
    <trkpt lat="42.854037" lon="-0.468114"><ele>1689.5</ele></trkpt>
    <trkpt lat="42.854024" lon="-0.467873"><ele>1689</ele></trkpt>
    <trkpt lat="42.853886" lon="-0.467329"><ele>1680.5</ele></trkpt>
    <trkpt lat="42.853794" lon="-0.467393"><ele>1680.1</ele></trkpt>
    <trkpt lat="42.853613" lon="-0.467379"><ele>1679.7</ele></trkpt>
    <trkpt lat="42.853483" lon="-0.467052"><ele>1675.3</ele></trkpt>
    <trkpt lat="42.853269" lon="-0.466725"><ele>1669.6</ele></trkpt>
    <trkpt lat="42.853237" lon="-0.466309"><ele>1667.6</ele></trkpt>
    <trkpt lat="42.853267" lon="-0.465848"><ele>1667.2</ele></trkpt>
    <trkpt lat="42.85343" lon="-0.464987"><ele>1661.7</ele></trkpt>
    <trkpt lat="42.853452" lon="-0.46448"><ele>1653.2</ele></trkpt>
    <trkpt lat="42.853567" lon="-0.462847"><ele>1614.1</ele></trkpt>
    <trkpt lat="42.853764" lon="-0.46224"><ele>1588.8</ele></trkpt>
    <trkpt lat="42.853893" lon="-0.461002"><ele>1572.1</ele></trkpt>
    <trkpt lat="42.853882" lon="-0.460435"><ele>1570.3</ele></trkpt>
    <trkpt lat="42.853823" lon="-0.460188"><ele>1568.9</ele></trkpt>
    <trkpt lat="42.853727" lon="-0.460056"><ele>1569</ele></trkpt>
    <trkpt lat="42.853755" lon="-0.459663"><ele>1566.9</ele></trkpt>
    <trkpt lat="42.853968" lon="-0.459384"><ele>1564.6</ele></trkpt>
    <trkpt lat="42.85416" lon="-0.458941"><ele>1563.8</ele></trkpt>
    <trkpt lat="42.854172" lon="-0.458913"><ele>1562.9</ele></trkpt>
    <trkpt lat="42.854178" lon="-0.458762"><ele>1562.2</ele></trkpt>
    <trkpt lat="42.854218" lon="-0.458659"><ele>1561.9</ele></trkpt>
    <trkpt lat="42.854229" lon="-0.458522"><ele>1560.9</ele></trkpt>
    <trkpt lat="42.854282" lon="-0.458304"><ele>1559.3</ele></trkpt>
    <trkpt lat="42.854327" lon="-0.457951"><ele>1559</ele></trkpt>
    <trkpt lat="42.854354" lon="-0.45784"><ele>1559.3</ele></trkpt>
    <trkpt lat="42.854426" lon="-0.457675"><ele>1559.7</ele></trkpt>
    <trkpt lat="42.854572" lon="-0.457543"><ele>1556</ele></trkpt>
    <trkpt lat="42.854741" lon="-0.457455"><ele>1552.8</ele></trkpt>
    <trkpt lat="42.855201" lon="-0.456935"><ele>1553.8</ele></trkpt>
    <trkpt lat="42.855343" lon="-0.456822"><ele>1556.3</ele></trkpt>
    <trkpt lat="42.855396" lon="-0.456718"><ele>1562</ele></trkpt>
    <trkpt lat="42.855505" lon="-0.456516"><ele>1554.2</ele></trkpt>
    <trkpt lat="42.855777" lon="-0.456142"><ele>1553.7</ele></trkpt>
    <trkpt lat="42.85583" lon="-0.456097"><ele>1553.3</ele></trkpt>
    <trkpt lat="42.856138" lon="-0.456109"><ele>1554.5</ele></trkpt>
    <trkpt lat="42.85641" lon="-0.456162"><ele>1554.7</ele></trkpt>
    <trkpt lat="42.856487" lon="-0.456151"><ele>1554.8</ele></trkpt>
    <trkpt lat="42.856743" lon="-0.456063"><ele>1554.8</ele></trkpt>
    <trkpt lat="42.857069" lon="-0.455921"><ele>1555.8</ele></trkpt>
    <trkpt lat="42.857185" lon="-0.455914"><ele>1558.5</ele></trkpt>
    <trkpt lat="42.857227" lon="-0.455867"><ele>1561</ele></trkpt>
    <trkpt lat="42.857209" lon="-0.455679"><ele>1519</ele></trkpt>
    <trkpt lat="42.857219" lon="-0.455579"><ele>1519</ele></trkpt>
    <trkpt lat="42.857238" lon="-0.455535"><ele>1511.2</ele></trkpt>
    <trkpt lat="42.857274" lon="-0.455503"><ele>1511.4</ele></trkpt>
    <trkpt lat="42.857452" lon="-0.455449"><ele>1511.6</ele></trkpt>
    <trkpt lat="42.857592" lon="-0.455334"><ele>1511.2</ele></trkpt>
    <trkpt lat="42.857704" lon="-0.455215"><ele>1510.9</ele></trkpt>
    <trkpt lat="42.857921" lon="-0.454912"><ele>1509.7</ele></trkpt>
    <trkpt lat="42.857969" lon="-0.454821"><ele>1509.6</ele></trkpt>
    <trkpt lat="42.858046" lon="-0.454503"><ele>1509.1</ele></trkpt>
    <trkpt lat="42.858292" lon="-0.454336"><ele>1507.6</ele></trkpt>
    <trkpt lat="42.858402" lon="-0.454297"><ele>1505.5</ele></trkpt>
    <trkpt lat="42.858687" lon="-0.454381"><ele>1503.1</ele></trkpt>
    <trkpt lat="42.858802" lon="-0.45445"><ele>1502.2</ele></trkpt>
    <trkpt lat="42.859087" lon="-0.45445"><ele>1495</ele></trkpt>
    <trkpt lat="42.859289" lon="-0.454422"><ele>1481.3</ele></trkpt>
    <trkpt lat="42.859521" lon="-0.454444"><ele>1480.7</ele></trkpt>
    <trkpt lat="42.85996" lon="-0.454363"><ele>1480</ele></trkpt>
    <trkpt lat="42.860396" lon="-0.454367"><ele>1475.1</ele></trkpt>
    <trkpt lat="42.86053" lon="-0.454318"><ele>1471.4</ele></trkpt>
    <trkpt lat="42.860656" lon="-0.454202"><ele>1467.2</ele></trkpt>
    <trkpt lat="42.86105" lon="-0.454209"><ele>1463.7</ele></trkpt>
    <trkpt lat="42.861336" lon="-0.454113"><ele>1460.9</ele></trkpt>
    <trkpt lat="42.861556" lon="-0.453873"><ele>1460.1</ele></trkpt>
    <trkpt lat="42.861753" lon="-0.453506"><ele>1442</ele></trkpt>
    <trkpt lat="42.862035" lon="-0.453048"><ele>1447.3</ele></trkpt>
    <trkpt lat="42.862401" lon="-0.452593"><ele>1447.1</ele></trkpt>
    <trkpt lat="42.862551" lon="-0.452345"><ele>1446.8</ele></trkpt>
    <trkpt lat="42.862829" lon="-0.45209"><ele>1447</ele></trkpt>
    <trkpt lat="42.862881" lon="-0.452064"><ele>1446.7</ele></trkpt>
    <trkpt lat="42.863244" lon="-0.452002"><ele>1445.4</ele></trkpt>
    <trkpt lat="42.863449" lon="-0.451937"><ele>1445.1</ele></trkpt>
    <trkpt lat="42.863583" lon="-0.451834"><ele>1443</ele></trkpt>
    <trkpt lat="42.863662" lon="-0.451763"><ele>1445.1</ele></trkpt>
    <trkpt lat="42.863986" lon="-0.451566"><ele>1446.2</ele></trkpt>
    <trkpt lat="42.864117" lon="-0.451433"><ele>1446.1</ele></trkpt>
    <trkpt lat="42.864191" lon="-0.451322"><ele>1445.8</ele></trkpt>
    <trkpt lat="42.864242" lon="-0.451198"><ele>1445.6</ele></trkpt>
    <trkpt lat="42.864269" lon="-0.45104"><ele>1445.4</ele></trkpt>
    <trkpt lat="42.86426" lon="-0.450699"><ele>1445.2</ele></trkpt>
    <trkpt lat="42.86428" lon="-0.450566"><ele>1445</ele></trkpt>
    <trkpt lat="42.86435" lon="-0.450334"><ele>1444.9</ele></trkpt>
    <trkpt lat="42.864365" lon="-0.450234"><ele>1444.8</ele></trkpt>
    <trkpt lat="42.864352" lon="-0.450074"><ele>1444.8</ele></trkpt>
    <trkpt lat="42.864375" lon="-0.449954"><ele>1444.7</ele></trkpt>
    <trkpt lat="42.864413" lon="-0.449874"><ele>1444.1</ele></trkpt>
    <trkpt lat="42.864462" lon="-0.449817"><ele>1443.4</ele></trkpt>
    <trkpt lat="42.86451" lon="-0.449794"><ele>1443.4</ele></trkpt>
    <trkpt lat="42.864581" lon="-0.449819"><ele>1444</ele></trkpt>
    <trkpt lat="42.864709" lon="-0.449932"><ele>1444</ele></trkpt>
    <trkpt lat="42.864965" lon="-0.450198"><ele>1430.2</ele></trkpt>
    <trkpt lat="42.86524" lon="-0.450432"><ele>1429.7</ele></trkpt>
    <trkpt lat="42.865312" lon="-0.450473"><ele>1429.3</ele></trkpt>
    <trkpt lat="42.865391" lon="-0.450489"><ele>1428.8</ele></trkpt>
    <trkpt lat="42.865486" lon="-0.450482"><ele>1428.4</ele></trkpt>
    <trkpt lat="42.865589" lon="-0.450447"><ele>1428</ele></trkpt>
    <trkpt lat="42.865701" lon="-0.450374"><ele>1427.7</ele></trkpt>
    <trkpt lat="42.865976" lon="-0.45009"><ele>1426.6</ele></trkpt>
    <trkpt lat="42.866093" lon="-0.450012"><ele>1421</ele></trkpt>
    <trkpt lat="42.86635" lon="-0.449971"><ele>1424.6</ele></trkpt>
    <trkpt lat="42.866498" lon="-0.450011"><ele>1424.4</ele></trkpt>
    <trkpt lat="42.866673" lon="-0.450088"><ele>1424.1</ele></trkpt>
    <trkpt lat="42.866914" lon="-0.450148"><ele>1423.9</ele></trkpt>
    <trkpt lat="42.867168" lon="-0.450282"><ele>1423.9</ele></trkpt>
    <trkpt lat="42.86727" lon="-0.450317"><ele>1423.8</ele></trkpt>
    <trkpt lat="42.867373" lon="-0.450322"><ele>1423.8</ele></trkpt>
    <trkpt lat="42.867451" lon="-0.450301"><ele>1423.9</ele></trkpt>
    <trkpt lat="42.867656" lon="-0.450168"><ele>1422.4</ele></trkpt>
    <trkpt lat="42.867864" lon="-0.449956"><ele>1422.2</ele></trkpt>
    <trkpt lat="42.868036" lon="-0.449736"><ele>1422.4</ele></trkpt>
    <trkpt lat="42.868119" lon="-0.449573"><ele>1422.7</ele></trkpt>
    <trkpt lat="42.868176" lon="-0.449413"><ele>1426</ele></trkpt>
    <trkpt lat="42.868233" lon="-0.449266"><ele>1426.1</ele></trkpt>
    <trkpt lat="42.868302" lon="-0.448983"><ele>1429.5</ele></trkpt>
    <trkpt lat="42.86851" lon="-0.448434"><ele>1419</ele></trkpt>
    <trkpt lat="42.868537" lon="-0.448405"><ele>1419</ele></trkpt>
    <trkpt lat="42.868654" lon="-0.448305"><ele>1427</ele></trkpt>
    <trkpt lat="42.868776" lon="-0.44823"><ele>1427</ele></trkpt>
    <trkpt lat="42.86931" lon="-0.44795"><ele>1423.9</ele></trkpt>
    <trkpt lat="42.869366" lon="-0.447958"><ele>1423.7</ele></trkpt>
    <trkpt lat="42.869389" lon="-0.44798"><ele>1423.6</ele></trkpt>
    <trkpt lat="42.869455" lon="-0.448139"><ele>1423</ele></trkpt>
    <trkpt lat="42.869711" lon="-0.448932"><ele>1417.9</ele></trkpt>
    <trkpt lat="42.869728" lon="-0.449036"><ele>1417.7</ele></trkpt>
    <trkpt lat="42.869723" lon="-0.449173"><ele>1417.3</ele></trkpt>
    <trkpt lat="42.869627" lon="-0.449821"><ele>1415</ele></trkpt>
    <trkpt lat="42.869761" lon="-0.449656"><ele>1414.7</ele></trkpt>
    <trkpt lat="42.869814" lon="-0.449454"><ele>1414.7</ele></trkpt>
  </trkseg></trk>
</gpx>
