<?xml version="1.0" encoding="UTF-8"?>
<gpx xmlns="http://www.topografix.com/GPX/1/1" version="1.1" creator="FriendlyRando">
  <metadata><name>Tour des lacs d'Ayous</name><desc>Boucle au départ de Bious-Artigues (vallée d'Ossau). Tracé calculé sur les sentiers OpenStreetMap (BRouter), altitudes issues du MNT.</desc></metadata>
  <wpt lat="42.86835" lon="-0.44798"><name>Parking de Bious-Artigues</name><type>parking</type></wpt>
  <wpt lat="42.86604" lon="-0.45348"><name>Lac de Bious-Artigues</name><type>lac</type></wpt>
  <wpt lat="42.84805" lon="-0.47932"><name>Lac Roumassot</name><type>lac</type></wpt>
  <wpt lat="42.84892" lon="-0.48339"><name>Lac du Miey</name><type>lac</type></wpt>
  <wpt lat="42.84821" lon="-0.48777"><name>Lac Gentau</name><type>lac</type></wpt>
  <wpt lat="42.84841" lon="-0.4912"><name>Refuge d'Ayous</name><type>refuge</type></wpt>
  <wpt lat="42.83924" lon="-0.49541"><name>Lac Bersau</name><type>lac</type></wpt>
  <wpt lat="42.83523" lon="-0.4852"><name>Lac Castérau</name><type>lac</type></wpt>
  <wpt lat="42.8545" lon="-0.45758"><name>Pont de Bious</name><type>pont</type></wpt>
  <wpt lat="42.8434" lon="-0.4381"><name>Pic du Midi d'Ossau</name><type>sommet</type></wpt>
  <trk><name>Tour des lacs d'Ayous</name><trkseg>
    <trkpt lat="42.868304" lon="-0.448034"><ele>1422.0</ele></trkpt>
    <trkpt lat="42.868537" lon="-0.448405"><ele>1416.25</ele></trkpt>
    <trkpt lat="42.868510" lon="-0.448434"><ele>1416.25</ele></trkpt>
    <trkpt lat="42.868437" lon="-0.448635"><ele>1416.0</ele></trkpt>
    <trkpt lat="42.868302" lon="-0.448983"><ele>1416.25</ele></trkpt>
    <trkpt lat="42.868259" lon="-0.449143"><ele>1416.75</ele></trkpt>
    <trkpt lat="42.868233" lon="-0.449266"><ele>1417.0</ele></trkpt>
    <trkpt lat="42.868176" lon="-0.449413"><ele>1418.0</ele></trkpt>
    <trkpt lat="42.868119" lon="-0.449573"><ele>1419.0</ele></trkpt>
    <trkpt lat="42.868036" lon="-0.449736"><ele>1419.75</ele></trkpt>
    <trkpt lat="42.867864" lon="-0.449956"><ele>1419.5</ele></trkpt>
    <trkpt lat="42.867656" lon="-0.450168"><ele>1417.0</ele></trkpt>
    <trkpt lat="42.867558" lon="-0.450241"><ele>1415.5</ele></trkpt>
    <trkpt lat="42.867451" lon="-0.450301"><ele>1414.5</ele></trkpt>
    <trkpt lat="42.867373" lon="-0.450322"><ele>1413.75</ele></trkpt>
    <trkpt lat="42.867270" lon="-0.450317"><ele>1413.5</ele></trkpt>
    <trkpt lat="42.867168" lon="-0.450282"><ele>1413.75</ele></trkpt>
    <trkpt lat="42.866914" lon="-0.450148"><ele>1416.25</ele></trkpt>
    <trkpt lat="42.866673" lon="-0.450088"><ele>1418.0</ele></trkpt>
    <trkpt lat="42.866498" lon="-0.450011"><ele>1420.25</ele></trkpt>
    <trkpt lat="42.866350" lon="-0.449971"><ele>1422.0</ele></trkpt>
    <trkpt lat="42.866172" lon="-0.449988"><ele>1423.5</ele></trkpt>
    <trkpt lat="42.866093" lon="-0.450012"><ele>1423.75</ele></trkpt>
    <trkpt lat="42.865975" lon="-0.450090"><ele>1423.0</ele></trkpt>
    <trkpt lat="42.865701" lon="-0.450374"><ele>1419.5</ele></trkpt>
    <trkpt lat="42.865589" lon="-0.450447"><ele>1418.75</ele></trkpt>
    <trkpt lat="42.865486" lon="-0.450482"><ele>1418.25</ele></trkpt>
    <trkpt lat="42.865391" lon="-0.450489"><ele>1418.0</ele></trkpt>
    <trkpt lat="42.865312" lon="-0.450473"><ele>1418.0</ele></trkpt>
    <trkpt lat="42.865240" lon="-0.450432"><ele>1418.25</ele></trkpt>
    <trkpt lat="42.864965" lon="-0.450198"><ele>1418.5</ele></trkpt>
    <trkpt lat="42.864709" lon="-0.449932"><ele>1419.0</ele></trkpt>
    <trkpt lat="42.864581" lon="-0.449819"><ele>1420.5</ele></trkpt>
    <trkpt lat="42.864554" lon="-0.449800"><ele>1420.75</ele></trkpt>
    <trkpt lat="42.864510" lon="-0.449794"><ele>1420.75</ele></trkpt>
    <trkpt lat="42.864462" lon="-0.449817"><ele>1420.25</ele></trkpt>
    <trkpt lat="42.864413" lon="-0.449874"><ele>1420.0</ele></trkpt>
    <trkpt lat="42.864375" lon="-0.449954"><ele>1419.5</ele></trkpt>
    <trkpt lat="42.864352" lon="-0.450074"><ele>1418.75</ele></trkpt>
    <trkpt lat="42.864365" lon="-0.450234"><ele>1417.25</ele></trkpt>
    <trkpt lat="42.864350" lon="-0.450334"><ele>1417.0</ele></trkpt>
    <trkpt lat="42.864280" lon="-0.450566"><ele>1418.5</ele></trkpt>
    <trkpt lat="42.864260" lon="-0.450699"><ele>1419.0</ele></trkpt>
    <trkpt lat="42.864269" lon="-0.451040"><ele>1418.0</ele></trkpt>
    <trkpt lat="42.864242" lon="-0.451198"><ele>1418.25</ele></trkpt>
    <trkpt lat="42.864191" lon="-0.451322"><ele>1418.75</ele></trkpt>
    <trkpt lat="42.864117" lon="-0.451433"><ele>1420.5</ele></trkpt>
    <trkpt lat="42.863986" lon="-0.451566"><ele>1424.25</ele></trkpt>
    <trkpt lat="42.863859" lon="-0.451654"><ele>1428.0</ele></trkpt>
    <trkpt lat="42.863662" lon="-0.451763"><ele>1432.75</ele></trkpt>
    <trkpt lat="42.863583" lon="-0.451834"><ele>1434.0</ele></trkpt>
    <trkpt lat="42.863449" lon="-0.451937"><ele>1434.75</ele></trkpt>
    <trkpt lat="42.863244" lon="-0.452002"><ele>1436.25</ele></trkpt>
    <trkpt lat="42.862881" lon="-0.452064"><ele>1438.75</ele></trkpt>
    <trkpt lat="42.862829" lon="-0.452090"><ele>1438.75</ele></trkpt>
    <trkpt lat="42.862551" lon="-0.452345"><ele>1438.0</ele></trkpt>
    <trkpt lat="42.862401" lon="-0.452593"><ele>1437.25</ele></trkpt>
    <trkpt lat="42.862035" lon="-0.453048"><ele>1439.0</ele></trkpt>
    <trkpt lat="42.861753" lon="-0.453506"><ele>1439.75</ele></trkpt>
    <trkpt lat="42.861556" lon="-0.453873"><ele>1440.5</ele></trkpt>
    <trkpt lat="42.861336" lon="-0.454113"><ele>1443.75</ele></trkpt>
    <trkpt lat="42.861050" lon="-0.454209"><ele>1450.25</ele></trkpt>
    <trkpt lat="42.860656" lon="-0.454202"><ele>1460.0</ele></trkpt>
    <trkpt lat="42.860530" lon="-0.454318"><ele>1460.0</ele></trkpt>
    <trkpt lat="42.860396" lon="-0.454367"><ele>1461.0</ele></trkpt>
    <trkpt lat="42.859960" lon="-0.454363"><ele>1468.25</ele></trkpt>
    <trkpt lat="42.859521" lon="-0.454444"><ele>1472.75</ele></trkpt>
    <trkpt lat="42.859289" lon="-0.454422"><ele>1477.75</ele></trkpt>
    <trkpt lat="42.859086" lon="-0.454450"><ele>1479.75</ele></trkpt>
    <trkpt lat="42.858802" lon="-0.454450"><ele>1483.75</ele></trkpt>
    <trkpt lat="42.858687" lon="-0.454381"><ele>1488.75</ele></trkpt>
    <trkpt lat="42.858457" lon="-0.454305"><ele>1496.0</ele></trkpt>
    <trkpt lat="42.858402" lon="-0.454297"><ele>1497.25</ele></trkpt>
    <trkpt lat="42.858342" lon="-0.454312"><ele>1497.5</ele></trkpt>
    <trkpt lat="42.858292" lon="-0.454336"><ele>1497.25</ele></trkpt>
    <trkpt lat="42.858191" lon="-0.454419"><ele>1496.0</ele></trkpt>
    <trkpt lat="42.858104" lon="-0.454455"><ele>1496.5</ele></trkpt>
    <trkpt lat="42.858046" lon="-0.454503"><ele>1496.5</ele></trkpt>
    <trkpt lat="42.858020" lon="-0.454576"><ele>1495.0</ele></trkpt>
    <trkpt lat="42.858000" lon="-0.454723"><ele>1491.25</ele></trkpt>
    <trkpt lat="42.857969" lon="-0.454821"><ele>1488.75</ele></trkpt>
    <trkpt lat="42.857921" lon="-0.454912"><ele>1487.5</ele></trkpt>
    <trkpt lat="42.857704" lon="-0.455215"><ele>1486.5</ele></trkpt>
    <trkpt lat="42.857592" lon="-0.455334"><ele>1487.5</ele></trkpt>
    <trkpt lat="42.857452" lon="-0.455449"><ele>1488.0</ele></trkpt>
    <trkpt lat="42.857406" lon="-0.455472"><ele>1488.5</ele></trkpt>
    <trkpt lat="42.857321" lon="-0.455486"><ele>1489.75</ele></trkpt>
    <trkpt lat="42.857274" lon="-0.455503"><ele>1490.25</ele></trkpt>
    <trkpt lat="42.857238" lon="-0.455535"><ele>1490.0</ele></trkpt>
    <trkpt lat="42.857219" lon="-0.455579"><ele>1490.25</ele></trkpt>
    <trkpt lat="42.857209" lon="-0.455679"><ele>1492.25</ele></trkpt>
    <trkpt lat="42.857230" lon="-0.455831"><ele>1494.75</ele></trkpt>
    <trkpt lat="42.857227" lon="-0.455867"><ele>1496.75</ele></trkpt>
    <trkpt lat="42.857211" lon="-0.455895"><ele>1498.25</ele></trkpt>
    <trkpt lat="42.857185" lon="-0.455914"><ele>1499.25</ele></trkpt>
    <trkpt lat="42.857069" lon="-0.455921"><ele>1500.25</ele></trkpt>
    <trkpt lat="42.856743" lon="-0.456063"><ele>1508.75</ele></trkpt>
    <trkpt lat="42.856487" lon="-0.456151"><ele>1513.25</ele></trkpt>
    <trkpt lat="42.856410" lon="-0.456162"><ele>1513.75</ele></trkpt>
    <trkpt lat="42.856334" lon="-0.456154"><ele>1514.0</ele></trkpt>
    <trkpt lat="42.856138" lon="-0.456109"><ele>1513.75</ele></trkpt>
    <trkpt lat="42.855830" lon="-0.456097"><ele>1517.75</ele></trkpt>
    <trkpt lat="42.855777" lon="-0.456142"><ele>1519.5</ele></trkpt>
    <trkpt lat="42.855505" lon="-0.456516"><ele>1532.0</ele></trkpt>
    <trkpt lat="42.855396" lon="-0.456718"><ele>1537.5</ele></trkpt>
    <trkpt lat="42.855343" lon="-0.456822"><ele>1540.25</ele></trkpt>
    <trkpt lat="42.855291" lon="-0.456872"><ele>1541.25</ele></trkpt>
    <trkpt lat="42.855246" lon="-0.456897"><ele>1541.25</ele></trkpt>
    <trkpt lat="42.855201" lon="-0.456935"><ele>1541.25</ele></trkpt>
    <trkpt lat="42.854741" lon="-0.457455"><ele>1546.25</ele></trkpt>
    <trkpt lat="42.854695" lon="-0.457486"><ele>1545.75</ele></trkpt>
    <trkpt lat="42.854572" lon="-0.457543"><ele>1543.0</ele></trkpt>
    <trkpt lat="42.854550" lon="-0.457571"><ele>1542.75</ele></trkpt>
    <trkpt lat="42.854469" lon="-0.457628"><ele>1541.5</ele></trkpt>
    <trkpt lat="42.854426" lon="-0.457675"><ele>1541.5</ele></trkpt>
    <trkpt lat="42.854395" lon="-0.457730"><ele>1542.0</ele></trkpt>
    <trkpt lat="42.854354" lon="-0.457840"><ele>1543.0</ele></trkpt>
    <trkpt lat="42.854327" lon="-0.457951"><ele>1543.75</ele></trkpt>
    <trkpt lat="42.854282" lon="-0.458304"><ele>1546.75</ele></trkpt>
    <trkpt lat="42.854229" lon="-0.458522"><ele>1548.5</ele></trkpt>
    <trkpt lat="42.854218" lon="-0.458659"><ele>1550.25</ele></trkpt>
    <trkpt lat="42.854178" lon="-0.458762"><ele>1550.5</ele></trkpt>
    <trkpt lat="42.854172" lon="-0.458913"><ele>1552.5</ele></trkpt>
    <trkpt lat="42.853968" lon="-0.459384"><ele>1552.75</ele></trkpt>
    <trkpt lat="42.853755" lon="-0.459663"><ele>1551.25</ele></trkpt>
    <trkpt lat="42.853727" lon="-0.460056"><ele>1556.0</ele></trkpt>
    <trkpt lat="42.853823" lon="-0.460188"><ele>1561.25</ele></trkpt>
    <trkpt lat="42.853882" lon="-0.460435"><ele>1568.0</ele></trkpt>
    <trkpt lat="42.853893" lon="-0.461002"><ele>1579.75</ele></trkpt>
    <trkpt lat="42.853765" lon="-0.462240"><ele>1603.25</ele></trkpt>
    <trkpt lat="42.853567" lon="-0.462847"><ele>1611.25</ele></trkpt>
    <trkpt lat="42.853452" lon="-0.464480"><ele>1636.0</ele></trkpt>
    <trkpt lat="42.853430" lon="-0.464987"><ele>1640.25</ele></trkpt>
    <trkpt lat="42.853345" lon="-0.465395"><ele>1640.5</ele></trkpt>
    <trkpt lat="42.853267" lon="-0.465848"><ele>1643.25</ele></trkpt>
    <trkpt lat="42.853237" lon="-0.466309"><ele>1648.25</ele></trkpt>
    <trkpt lat="42.853269" lon="-0.466725"><ele>1656.75</ele></trkpt>
    <trkpt lat="42.853483" lon="-0.467052"><ele>1673.75</ele></trkpt>
    <trkpt lat="42.853551" lon="-0.467235"><ele>1680.0</ele></trkpt>
    <trkpt lat="42.853613" lon="-0.467379"><ele>1685.25</ele></trkpt>
    <trkpt lat="42.853794" lon="-0.467393"><ele>1692.25</ele></trkpt>
    <trkpt lat="42.853886" lon="-0.467329"><ele>1695.0</ele></trkpt>
    <trkpt lat="42.854024" lon="-0.467873"><ele>1701.75</ele></trkpt>
    <trkpt lat="42.854037" lon="-0.468114"><ele>1701.75</ele></trkpt>
    <trkpt lat="42.854127" lon="-0.468546"><ele>1701.5</ele></trkpt>
    <trkpt lat="42.854170" lon="-0.468670"><ele>1702.0</ele></trkpt>
    <trkpt lat="42.854263" lon="-0.469104"><ele>1704.25</ele></trkpt>
    <trkpt lat="42.854289" lon="-0.469400"><ele>1707.0</ele></trkpt>
    <trkpt lat="42.854240" lon="-0.469679"><ele>1710.25</ele></trkpt>
    <trkpt lat="42.854252" lon="-0.469833"><ele>1713.25</ele></trkpt>
    <trkpt lat="42.854231" lon="-0.470001"><ele>1717.25</ele></trkpt>
    <trkpt lat="42.854227" lon="-0.470108"><ele>1719.5</ele></trkpt>
    <trkpt lat="42.854208" lon="-0.470193"><ele>1721.5</ele></trkpt>
    <trkpt lat="42.854094" lon="-0.470240"><ele>1723.5</ele></trkpt>
    <trkpt lat="42.853737" lon="-0.470883"><ele>1737.5</ele></trkpt>
    <trkpt lat="42.853661" lon="-0.471170"><ele>1744.0</ele></trkpt>
    <trkpt lat="42.853432" lon="-0.471368"><ele>1745.5</ele></trkpt>
    <trkpt lat="42.853287" lon="-0.471527"><ele>1745.5</ele></trkpt>
    <trkpt lat="42.853253" lon="-0.471632"><ele>1746.75</ele></trkpt>
    <trkpt lat="42.853147" lon="-0.472057"><ele>1753.25</ele></trkpt>
    <trkpt lat="42.853052" lon="-0.472264"><ele>1753.25</ele></trkpt>
    <trkpt lat="42.853022" lon="-0.472411"><ele>1758.0</ele></trkpt>
    <trkpt lat="42.852955" lon="-0.472498"><ele>1759.25</ele></trkpt>
    <trkpt lat="42.852815" lon="-0.472651"><ele>1760.75</ele></trkpt>
    <trkpt lat="42.852759" lon="-0.472745"><ele>1762.25</ele></trkpt>
    <trkpt lat="42.852540" lon="-0.472971"><ele>1766.0</ele></trkpt>
    <trkpt lat="42.852467" lon="-0.473036"><ele>1767.75</ele></trkpt>
    <trkpt lat="42.852258" lon="-0.473119"><ele>1770.25</ele></trkpt>
    <trkpt lat="42.851997" lon="-0.473132"><ele>1774.0</ele></trkpt>
    <trkpt lat="42.851894" lon="-0.473074"><ele>1773.75</ele></trkpt>
    <trkpt lat="42.851787" lon="-0.472963"><ele>1773.25</ele></trkpt>
    <trkpt lat="42.851415" lon="-0.472986"><ele>1777.5</ele></trkpt>
    <trkpt lat="42.851207" lon="-0.473148"><ele>1780.75</ele></trkpt>
    <trkpt lat="42.851024" lon="-0.473225"><ele>1782.75</ele></trkpt>
    <trkpt lat="42.850785" lon="-0.473405"><ele>1788.75</ele></trkpt>
    <trkpt lat="42.850638" lon="-0.473647"><ele>1794.25</ele></trkpt>
    <trkpt lat="42.850396" lon="-0.474087"><ele>1801.5</ele></trkpt>
    <trkpt lat="42.850241" lon="-0.474574"><ele>1806.5</ele></trkpt>
    <trkpt lat="42.850261" lon="-0.474854"><ele>1810.25</ele></trkpt>
    <trkpt lat="42.850120" lon="-0.475118"><ele>1812.5</ele></trkpt>
    <trkpt lat="42.849925" lon="-0.475410"><ele>1817.0</ele></trkpt>
    <trkpt lat="42.849823" lon="-0.475620"><ele>1823.0</ele></trkpt>
    <trkpt lat="42.849559" lon="-0.475842"><ele>1827.75</ele></trkpt>
    <trkpt lat="42.849497" lon="-0.475978"><ele>1831.25</ele></trkpt>
    <trkpt lat="42.849376" lon="-0.476144"><ele>1835.5</ele></trkpt>
    <trkpt lat="42.849305" lon="-0.476190"><ele>1836.25</ele></trkpt>
    <trkpt lat="42.849210" lon="-0.476326"><ele>1838.75</ele></trkpt>
    <trkpt lat="42.849088" lon="-0.476444"><ele>1843.0</ele></trkpt>
    <trkpt lat="42.849016" lon="-0.476587"><ele>1846.75</ele></trkpt>
    <trkpt lat="42.848949" lon="-0.476893"><ele>1850.5</ele></trkpt>
    <trkpt lat="42.848915" lon="-0.477275"><ele>1851.5</ele></trkpt>
    <trkpt lat="42.848913" lon="-0.477399"><ele>1851.75</ele></trkpt>
    <trkpt lat="42.848942" lon="-0.477549"><ele>1852.5</ele></trkpt>
    <trkpt lat="42.849062" lon="-0.477836"><ele>1852.75</ele></trkpt>
    <trkpt lat="42.849589" lon="-0.478694"><ele>1852.5</ele></trkpt>
    <trkpt lat="42.849744" lon="-0.478893"><ele>1852.25</ele></trkpt>
    <trkpt lat="42.849998" lon="-0.479121"><ele>1854.25</ele></trkpt>
    <trkpt lat="42.850060" lon="-0.479215"><ele>1855.0</ele></trkpt>
    <trkpt lat="42.850068" lon="-0.479241"><ele>1856.25</ele></trkpt>
    <trkpt lat="42.850092" lon="-0.479309"><ele>1856.25</ele></trkpt>
    <trkpt lat="42.850096" lon="-0.479417"><ele>1857.25</ele></trkpt>
    <trkpt lat="42.850062" lon="-0.479531"><ele>1858.75</ele></trkpt>
    <trkpt lat="42.850068" lon="-0.479629"><ele>1860.75</ele></trkpt>
    <trkpt lat="42.850013" lon="-0.479720"><ele>1861.25</ele></trkpt>
    <trkpt lat="42.849992" lon="-0.479795"><ele>1862.5</ele></trkpt>
    <trkpt lat="42.849998" lon="-0.479932"><ele>1866.25</ele></trkpt>
    <trkpt lat="42.850046" lon="-0.479940"><ele>1868.0</ele></trkpt>
    <trkpt lat="42.850067" lon="-0.479979"><ele>1869.75</ele></trkpt>
    <trkpt lat="42.850037" lon="-0.480029"><ele>1870.25</ele></trkpt>
    <trkpt lat="42.850074" lon="-0.480192"><ele>1877.75</ele></trkpt>
    <trkpt lat="42.850055" lon="-0.480329"><ele>1881.75</ele></trkpt>
    <trkpt lat="42.850226" lon="-0.480186"><ele>1884.75</ele></trkpt>
    <trkpt lat="42.850265" lon="-0.480175"><ele>1886.0</ele></trkpt>
    <trkpt lat="42.850219" lon="-0.480330"><ele>1890.75</ele></trkpt>
    <trkpt lat="42.850157" lon="-0.480389"><ele>1889.5</ele></trkpt>
    <trkpt lat="42.850198" lon="-0.480602"><ele>1899.5</ele></trkpt>
    <trkpt lat="42.850171" lon="-0.480655"><ele>1899.25</ele></trkpt>
    <trkpt lat="42.850125" lon="-0.480708"><ele>1898.75</ele></trkpt>
    <trkpt lat="42.850123" lon="-0.480836"><ele>1902.25</ele></trkpt>
    <trkpt lat="42.850129" lon="-0.480885"><ele>1903.75</ele></trkpt>
    <trkpt lat="42.850088" lon="-0.480933"><ele>1903.75</ele></trkpt>
    <trkpt lat="42.850124" lon="-0.480988"><ele>1906.25</ele></trkpt>
    <trkpt lat="42.850127" lon="-0.481009"><ele>1907.0</ele></trkpt>
    <trkpt lat="42.850118" lon="-0.481024"><ele>1907.25</ele></trkpt>
    <trkpt lat="42.850057" lon="-0.480989"><ele>1904.5</ele></trkpt>
    <trkpt lat="42.850031" lon="-0.481000"><ele>1904.0</ele></trkpt>
    <trkpt lat="42.850016" lon="-0.481051"><ele>1905.25</ele></trkpt>
    <trkpt lat="42.849964" lon="-0.481044"><ele>1904.25</ele></trkpt>
    <trkpt lat="42.849934" lon="-0.481083"><ele>1905.0</ele></trkpt>
    <trkpt lat="42.849920" lon="-0.481282"><ele>1909.0</ele></trkpt>
    <trkpt lat="42.849935" lon="-0.481340"><ele>1910.25</ele></trkpt>
    <trkpt lat="42.849980" lon="-0.481422"><ele>1912.0</ele></trkpt>
    <trkpt lat="42.850022" lon="-0.481440"><ele>1912.75</ele></trkpt>
    <trkpt lat="42.850158" lon="-0.481566"><ele>1917.5</ele></trkpt>
    <trkpt lat="42.850235" lon="-0.481808"><ele>1920.25</ele></trkpt>
    <trkpt lat="42.850366" lon="-0.482041"><ele>1924.25</ele></trkpt>
    <trkpt lat="42.850433" lon="-0.482184"><ele>1925.25</ele></trkpt>
    <trkpt lat="42.850528" lon="-0.482338"><ele>1928.0</ele></trkpt>
    <trkpt lat="42.850545" lon="-0.482414"><ele>1928.25</ele></trkpt>
    <trkpt lat="42.850535" lon="-0.482477"><ele>1927.5</ele></trkpt>
    <trkpt lat="42.850453" lon="-0.482660"><ele>1926.5</ele></trkpt>
    <trkpt lat="42.850422" lon="-0.482899"><ele>1927.5</ele></trkpt>
    <trkpt lat="42.850374" lon="-0.483050"><ele>1927.25</ele></trkpt>
    <trkpt lat="42.850346" lon="-0.483287"><ele>1928.75</ele></trkpt>
    <trkpt lat="42.850262" lon="-0.483505"><ele>1931.25</ele></trkpt>
    <trkpt lat="42.850220" lon="-0.483569"><ele>1932.0</ele></trkpt>
    <trkpt lat="42.850144" lon="-0.483747"><ele>1933.0</ele></trkpt>
    <trkpt lat="42.850181" lon="-0.483977"><ele>1936.25</ele></trkpt>
    <trkpt lat="42.850102" lon="-0.484359"><ele>1937.0</ele></trkpt>
    <trkpt lat="42.850112" lon="-0.484621"><ele>1937.75</ele></trkpt>
    <trkpt lat="42.850130" lon="-0.484820"><ele>1937.0</ele></trkpt>
    <trkpt lat="42.850303" lon="-0.485220"><ele>1936.25</ele></trkpt>
    <trkpt lat="42.850345" lon="-0.485269"><ele>1936.0</ele></trkpt>
    <trkpt lat="42.850525" lon="-0.485415"><ele>1937.0</ele></trkpt>
    <trkpt lat="42.850550" lon="-0.485532"><ele>1936.0</ele></trkpt>
    <trkpt lat="42.850555" lon="-0.485735"><ele>1937.25</ele></trkpt>
    <trkpt lat="42.850537" lon="-0.485772"><ele>1937.25</ele></trkpt>
    <trkpt lat="42.850538" lon="-0.485832"><ele>1937.75</ele></trkpt>
    <trkpt lat="42.850481" lon="-0.485884"><ele>1938.0</ele></trkpt>
    <trkpt lat="42.850440" lon="-0.486066"><ele>1940.75</ele></trkpt>
    <trkpt lat="42.850322" lon="-0.486181"><ele>1942.0</ele></trkpt>
    <trkpt lat="42.850182" lon="-0.486369"><ele>1945.75</ele></trkpt>
    <trkpt lat="42.850113" lon="-0.486571"><ele>1948.5</ele></trkpt>
    <trkpt lat="42.849977" lon="-0.486731"><ele>1950.0</ele></trkpt>
    <trkpt lat="42.849933" lon="-0.486857"><ele>1951.75</ele></trkpt>
    <trkpt lat="42.849924" lon="-0.486918"><ele>1952.5</ele></trkpt>
    <trkpt lat="42.849942" lon="-0.487123"><ele>1954.5</ele></trkpt>
    <trkpt lat="42.849857" lon="-0.487406"><ele>1952.25</ele></trkpt>
    <trkpt lat="42.849774" lon="-0.487719"><ele>1950.0</ele></trkpt>
    <trkpt lat="42.849722" lon="-0.487940"><ele>1949.5</ele></trkpt>
    <trkpt lat="42.849639" lon="-0.488096"><ele>1949.0</ele></trkpt>
    <trkpt lat="42.849630" lon="-0.488243"><ele>1949.25</ele></trkpt>
    <trkpt lat="42.849503" lon="-0.488579"><ele>1951.0</ele></trkpt>
    <trkpt lat="42.849266" lon="-0.488918"><ele>1949.75</ele></trkpt>
    <trkpt lat="42.849227" lon="-0.489024"><ele>1949.75</ele></trkpt>
    <trkpt lat="42.849184" lon="-0.489225"><ele>1950.25</ele></trkpt>
    <trkpt lat="42.849201" lon="-0.489548"><ele>1951.0</ele></trkpt>
    <trkpt lat="42.849154" lon="-0.489900"><ele>1950.75</ele></trkpt>
    <trkpt lat="42.849076" lon="-0.490166"><ele>1950.25</ele></trkpt>
    <trkpt lat="42.849018" lon="-0.490281"><ele>1949.75</ele></trkpt>
    <trkpt lat="42.848950" lon="-0.490374"><ele>1950.5</ele></trkpt>
    <trkpt lat="42.848893" lon="-0.490421"><ele>1951.0</ele></trkpt>
    <trkpt lat="42.848887" lon="-0.490459"><ele>1951.5</ele></trkpt>
    <trkpt lat="42.848914" lon="-0.490528"><ele>1952.5</ele></trkpt>
    <trkpt lat="42.848922" lon="-0.490600"><ele>1953.75</ele></trkpt>
    <trkpt lat="42.848939" lon="-0.490650"><ele>1954.75</ele></trkpt>
    <trkpt lat="42.848940" lon="-0.490664"><ele>1955.0</ele></trkpt>
    <trkpt lat="42.848928" lon="-0.490692"><ele>1955.75</ele></trkpt>
    <trkpt lat="42.848862" lon="-0.490752"><ele>1958.0</ele></trkpt>
    <trkpt lat="42.848814" lon="-0.490779"><ele>1959.0</ele></trkpt>
    <trkpt lat="42.848736" lon="-0.490864"><ele>1961.75</ele></trkpt>
    <trkpt lat="42.848691" lon="-0.491003"><ele>1965.25</ele></trkpt>
    <trkpt lat="42.848647" lon="-0.491049"><ele>1966.5</ele></trkpt>
    <trkpt lat="42.848599" lon="-0.491073"><ele>1967.0</ele></trkpt>
    <trkpt lat="42.848537" lon="-0.491078"><ele>1967.25</ele></trkpt>
    <trkpt lat="42.848319" lon="-0.491054"><ele>1966.5</ele></trkpt>
    <trkpt lat="42.848313" lon="-0.491092"><ele>1967.5</ele></trkpt>
    <trkpt lat="42.848316" lon="-0.491130"><ele>1968.0</ele></trkpt>
    <trkpt lat="42.848337" lon="-0.491125"><ele>1968.0</ele></trkpt>
    <trkpt lat="42.848316" lon="-0.491130"><ele>1968.0</ele></trkpt>
    <trkpt lat="42.848313" lon="-0.491092"><ele>1967.5</ele></trkpt>
    <trkpt lat="42.848319" lon="-0.491054"><ele>1966.5</ele></trkpt>
    <trkpt lat="42.848242" lon="-0.491064"><ele>1966.75</ele></trkpt>
    <trkpt lat="42.848188" lon="-0.491089"><ele>1967.25</ele></trkpt>
    <trkpt lat="42.848108" lon="-0.491093"><ele>1967.25</ele></trkpt>
    <trkpt lat="42.848027" lon="-0.491074"><ele>1967.0</ele></trkpt>
    <trkpt lat="42.847989" lon="-0.491074"><ele>1967.25</ele></trkpt>
    <trkpt lat="42.847891" lon="-0.491159"><ele>1968.75</ele></trkpt>
    <trkpt lat="42.847823" lon="-0.491079"><ele>1968.25</ele></trkpt>
    <trkpt lat="42.847810" lon="-0.491063"><ele>1968.0</ele></trkpt>
    <trkpt lat="42.847408" lon="-0.490848"><ele>1967.75</ele></trkpt>
    <trkpt lat="42.847173" lon="-0.490912"><ele>1968.5</ele></trkpt>
    <trkpt lat="42.847094" lon="-0.490900"><ele>1969.0</ele></trkpt>
    <trkpt lat="42.847048" lon="-0.490892"><ele>1969.5</ele></trkpt>
    <trkpt lat="42.846939" lon="-0.490700"><ele>1968.75</ele></trkpt>
    <trkpt lat="42.846871" lon="-0.490645"><ele>1970.5</ele></trkpt>
    <trkpt lat="42.846717" lon="-0.490573"><ele>1976.0</ele></trkpt>
    <trkpt lat="42.846580" lon="-0.490763"><ele>1983.75</ele></trkpt>
    <trkpt lat="42.846500" lon="-0.490932"><ele>1988.25</ele></trkpt>
    <trkpt lat="42.846466" lon="-0.491131"><ele>1991.0</ele></trkpt>
    <trkpt lat="42.846413" lon="-0.491215"><ele>1993.0</ele></trkpt>
    <trkpt lat="42.846289" lon="-0.491312"><ele>1995.75</ele></trkpt>
    <trkpt lat="42.846196" lon="-0.491409"><ele>1997.75</ele></trkpt>
    <trkpt lat="42.846110" lon="-0.491414"><ele>2000.0</ele></trkpt>
    <trkpt lat="42.845998" lon="-0.491443"><ele>2002.0</ele></trkpt>
    <trkpt lat="42.845933" lon="-0.491511"><ele>2003.75</ele></trkpt>
    <trkpt lat="42.845905" lon="-0.491621"><ele>2006.0</ele></trkpt>
    <trkpt lat="42.845862" lon="-0.491629"><ele>2007.25</ele></trkpt>
    <trkpt lat="42.845788" lon="-0.491549"><ele>2009.75</ele></trkpt>
    <trkpt lat="42.845757" lon="-0.491705"><ele>2014.5</ele></trkpt>
    <trkpt lat="42.845602" lon="-0.491925"><ele>2025.0</ele></trkpt>
    <trkpt lat="42.845500" lon="-0.491996"><ele>2031.5</ele></trkpt>
    <trkpt lat="42.845416" lon="-0.492017"><ele>2036.75</ele></trkpt>
    <trkpt lat="42.845339" lon="-0.492115"><ele>2040.75</ele></trkpt>
    <trkpt lat="42.845333" lon="-0.492275"><ele>2038.75</ele></trkpt>
    <trkpt lat="42.845283" lon="-0.492410"><ele>2039.25</ele></trkpt>
    <trkpt lat="42.845150" lon="-0.492533"><ele>2040.5</ele></trkpt>
    <trkpt lat="42.845032" lon="-0.492581"><ele>2042.75</ele></trkpt>
    <trkpt lat="42.844876" lon="-0.492477"><ele>2045.5</ele></trkpt>
    <trkpt lat="42.844817" lon="-0.492471"><ele>2045.75</ele></trkpt>
    <trkpt lat="42.844722" lon="-0.492418"><ele>2047.25</ele></trkpt>
    <trkpt lat="42.844619" lon="-0.492392"><ele>2048.25</ele></trkpt>
    <trkpt lat="42.844537" lon="-0.492358"><ele>2049.75</ele></trkpt>
    <trkpt lat="42.844429" lon="-0.492387"><ele>2049.25</ele></trkpt>
    <trkpt lat="42.844392" lon="-0.492334"><ele>2051.0</ele></trkpt>
    <trkpt lat="42.844348" lon="-0.492297"><ele>2052.25</ele></trkpt>
    <trkpt lat="42.844213" lon="-0.492265"><ele>2053.75</ele></trkpt>
    <trkpt lat="42.844034" lon="-0.492279"><ele>2055.0</ele></trkpt>
    <trkpt lat="42.843871" lon="-0.492353"><ele>2055.5</ele></trkpt>
    <trkpt lat="42.843799" lon="-0.492428"><ele>2055.25</ele></trkpt>
    <trkpt lat="42.843701" lon="-0.492468"><ele>2055.0</ele></trkpt>
    <trkpt lat="42.843542" lon="-0.492518"><ele>2055.0</ele></trkpt>
    <trkpt lat="42.843388" lon="-0.492461"><ele>2056.5</ele></trkpt>
    <trkpt lat="42.843026" lon="-0.492583"><ele>2058.75</ele></trkpt>
    <trkpt lat="42.842955" lon="-0.492568"><ele>2059.75</ele></trkpt>
    <trkpt lat="42.842854" lon="-0.492594"><ele>2061.0</ele></trkpt>
    <trkpt lat="42.842786" lon="-0.492507"><ele>2062.75</ele></trkpt>
    <trkpt lat="42.842725" lon="-0.492406"><ele>2064.5</ele></trkpt>
    <trkpt lat="42.842597" lon="-0.492432"><ele>2065.75</ele></trkpt>
    <trkpt lat="42.842449" lon="-0.492582"><ele>2068.25</ele></trkpt>
    <trkpt lat="42.842280" lon="-0.492683"><ele>2072.75</ele></trkpt>
    <trkpt lat="42.842258" lon="-0.492737"><ele>2073.75</ele></trkpt>
    <trkpt lat="42.842179" lon="-0.492816"><ele>2075.5</ele></trkpt>
    <trkpt lat="42.841920" lon="-0.492827"><ele>2080.25</ele></trkpt>
    <trkpt lat="42.841802" lon="-0.492939"><ele>2081.75</ele></trkpt>
    <trkpt lat="42.841729" lon="-0.492979"><ele>2082.5</ele></trkpt>
    <trkpt lat="42.841509" lon="-0.493007"><ele>2084.0</ele></trkpt>
    <trkpt lat="42.841391" lon="-0.493049"><ele>2084.75</ele></trkpt>
    <trkpt lat="42.841269" lon="-0.492941"><ele>2084.5</ele></trkpt>
    <trkpt lat="42.841134" lon="-0.492861"><ele>2084.5</ele></trkpt>
    <trkpt lat="42.840935" lon="-0.492608"><ele>2083.0</ele></trkpt>
    <trkpt lat="42.840845" lon="-0.492493"><ele>2083.0</ele></trkpt>
    <trkpt lat="42.840677" lon="-0.492386"><ele>2083.5</ele></trkpt>
    <trkpt lat="42.840556" lon="-0.492229"><ele>2084.75</ele></trkpt>
    <trkpt lat="42.840428" lon="-0.492094"><ele>2087.25</ele></trkpt>
    <trkpt lat="42.840336" lon="-0.492024"><ele>2087.5</ele></trkpt>
    <trkpt lat="42.840280" lon="-0.492056"><ele>2086.75</ele></trkpt>
    <trkpt lat="42.840232" lon="-0.492098"><ele>2087.25</ele></trkpt>
    <trkpt lat="42.840102" lon="-0.492228"><ele>2086.75</ele></trkpt>
    <trkpt lat="42.840035" lon="-0.492350"><ele>2086.0</ele></trkpt>
    <trkpt lat="42.840003" lon="-0.492386"><ele>2086.0</ele></trkpt>
    <trkpt lat="42.839885" lon="-0.492437"><ele>2086.25</ele></trkpt>
    <trkpt lat="42.839781" lon="-0.492507"><ele>2084.75</ele></trkpt>
    <trkpt lat="42.839709" lon="-0.492509"><ele>2084.75</ele></trkpt>
    <trkpt lat="42.839564" lon="-0.492443"><ele>2086.75</ele></trkpt>
    <trkpt lat="42.839483" lon="-0.492445"><ele>2086.5</ele></trkpt>
    <trkpt lat="42.839322" lon="-0.492632"><ele>2090.5</ele></trkpt>
    <trkpt lat="42.839141" lon="-0.492929"><ele>2092.75</ele></trkpt>
    <trkpt lat="42.839006" lon="-0.493076"><ele>2090.0</ele></trkpt>
    <trkpt lat="42.838940" lon="-0.493088"><ele>2090.75</ele></trkpt>
    <trkpt lat="42.838889" lon="-0.493068"><ele>2092.5</ele></trkpt>
    <trkpt lat="42.838623" lon="-0.492800"><ele>2089.75</ele></trkpt>
    <trkpt lat="42.838411" lon="-0.492738"><ele>2090.75</ele></trkpt>
    <trkpt lat="42.838210" lon="-0.492775"><ele>2089.5</ele></trkpt>
    <trkpt lat="42.838120" lon="-0.492732"><ele>2091.0</ele></trkpt>
    <trkpt lat="42.837619" lon="-0.492315"><ele>2097.75</ele></trkpt>
    <trkpt lat="42.837369" lon="-0.492162"><ele>2097.75</ele></trkpt>
    <trkpt lat="42.837272" lon="-0.492081"><ele>2096.5</ele></trkpt>
    <trkpt lat="42.837157" lon="-0.491924"><ele>2095.5</ele></trkpt>
    <trkpt lat="42.837045" lon="-0.491789"><ele>2096.25</ele></trkpt>
    <trkpt lat="42.836932" lon="-0.491770"><ele>2094.0</ele></trkpt>
    <trkpt lat="42.836805" lon="-0.491785"><ele>2093.5</ele></trkpt>
    <trkpt lat="42.836720" lon="-0.491747"><ele>2094.5</ele></trkpt>
    <trkpt lat="42.836698" lon="-0.491581"><ele>2092.25</ele></trkpt>
    <trkpt lat="42.836727" lon="-0.491468"><ele>2087.5</ele></trkpt>
    <trkpt lat="42.836850" lon="-0.491363"><ele>2085.75</ele></trkpt>
    <trkpt lat="42.836900" lon="-0.491278"><ele>2083.75</ele></trkpt>
    <trkpt lat="42.836886" lon="-0.491182"><ele>2080.0</ele></trkpt>
    <trkpt lat="42.836814" lon="-0.491167"><ele>2077.75</ele></trkpt>
    <trkpt lat="42.836750" lon="-0.490959"><ele>2071.5</ele></trkpt>
    <trkpt lat="42.836666" lon="-0.490916"><ele>2069.0</ele></trkpt>
    <trkpt lat="42.836523" lon="-0.491011"><ele>2064.0</ele></trkpt>
    <trkpt lat="42.836443" lon="-0.491110"><ele>2061.5</ele></trkpt>
    <trkpt lat="42.836376" lon="-0.491174"><ele>2059.75</ele></trkpt>
    <trkpt lat="42.836378" lon="-0.491019"><ele>2057.75</ele></trkpt>
    <trkpt lat="42.836339" lon="-0.490863"><ele>2054.5</ele></trkpt>
    <trkpt lat="42.836304" lon="-0.490749"><ele>2052.0</ele></trkpt>
    <trkpt lat="42.836261" lon="-0.490723"><ele>2049.5</ele></trkpt>
    <trkpt lat="42.836218" lon="-0.490800"><ele>2048.0</ele></trkpt>
    <trkpt lat="42.836092" lon="-0.490914"><ele>2042.75</ele></trkpt>
    <trkpt lat="42.836085" lon="-0.490976"><ele>2043.25</ele></trkpt>
    <trkpt lat="42.835950" lon="-0.491142"><ele>2040.25</ele></trkpt>
    <trkpt lat="42.835601" lon="-0.491423"><ele>2032.5</ele></trkpt>
    <trkpt lat="42.835322" lon="-0.491509"><ele>2024.5</ele></trkpt>
    <trkpt lat="42.835007" lon="-0.491724"><ele>2019.5</ele></trkpt>
    <trkpt lat="42.834881" lon="-0.491768"><ele>2017.0</ele></trkpt>
    <trkpt lat="42.834728" lon="-0.491872"><ele>2016.25</ele></trkpt>
    <trkpt lat="42.834632" lon="-0.491900"><ele>2016.75</ele></trkpt>
    <trkpt lat="42.834592" lon="-0.491877"><ele>2015.75</ele></trkpt>
    <trkpt lat="42.834531" lon="-0.491783"><ele>2011.75</ele></trkpt>
    <trkpt lat="42.834431" lon="-0.491546"><ele>2003.5</ele></trkpt>
    <trkpt lat="42.834376" lon="-0.491168"><ele>1995.5</ele></trkpt>
    <trkpt lat="42.834408" lon="-0.490672"><ele>1988.5</ele></trkpt>
    <trkpt lat="42.834556" lon="-0.490211"><ele>1981.25</ele></trkpt>
    <trkpt lat="42.834627" lon="-0.489713"><ele>1974.75</ele></trkpt>
    <trkpt lat="42.834865" lon="-0.489474"><ele>1970.75</ele></trkpt>
    <trkpt lat="42.834971" lon="-0.489222"><ele>1969.0</ele></trkpt>
    <trkpt lat="42.835068" lon="-0.488948"><ele>1969.5</ele></trkpt>
    <trkpt lat="42.835053" lon="-0.488631"><ele>1967.25</ele></trkpt>
    <trkpt lat="42.835176" lon="-0.488167"><ele>1966.5</ele></trkpt>
    <trkpt lat="42.835166" lon="-0.487876"><ele>1963.0</ele></trkpt>
    <trkpt lat="42.834901" lon="-0.487664"><ele>1956.5</ele></trkpt>
    <trkpt lat="42.834854" lon="-0.487484"><ele>1955.25</ele></trkpt>
    <trkpt lat="42.834835" lon="-0.487291"><ele>1954.25</ele></trkpt>
    <trkpt lat="42.834864" lon="-0.487157"><ele>1953.5</ele></trkpt>
    <trkpt lat="42.834859" lon="-0.486761"><ele>1951.0</ele></trkpt>
    <trkpt lat="42.834886" lon="-0.486400"><ele>1949.25</ele></trkpt>
    <trkpt lat="42.834802" lon="-0.486185"><ele>1947.0</ele></trkpt>
    <trkpt lat="42.834738" lon="-0.486105"><ele>1946.75</ele></trkpt>
    <trkpt lat="42.834709" lon="-0.486010"><ele>1946.0</ele></trkpt>
    <trkpt lat="42.834663" lon="-0.485930"><ele>1945.5</ele></trkpt>
    <trkpt lat="42.834619" lon="-0.485786"><ele>1945.25</ele></trkpt>
    <trkpt lat="42.834583" lon="-0.485690"><ele>1945.5</ele></trkpt>
    <trkpt lat="42.834553" lon="-0.485570"><ele>1945.75</ele></trkpt>
    <trkpt lat="42.834524" lon="-0.485385"><ele>1946.5</ele></trkpt>
    <trkpt lat="42.834527" lon="-0.485326"><ele>1946.5</ele></trkpt>
    <trkpt lat="42.834582" lon="-0.485016"><ele>1945.5</ele></trkpt>
    <trkpt lat="42.834702" lon="-0.484755"><ele>1947.0</ele></trkpt>
    <trkpt lat="42.834719" lon="-0.484717"><ele>1947.0</ele></trkpt>
    <trkpt lat="42.834804" lon="-0.484551"><ele>1947.5</ele></trkpt>
    <trkpt lat="42.834848" lon="-0.484491"><ele>1947.5</ele></trkpt>
    <trkpt lat="42.834941" lon="-0.484401"><ele>1948.0</ele></trkpt>
    <trkpt lat="42.835096" lon="-0.484218"><ele>1949.75</ele></trkpt>
    <trkpt lat="42.835205" lon="-0.484043"><ele>1952.0</ele></trkpt>
    <trkpt lat="42.835272" lon="-0.483991"><ele>1953.0</ele></trkpt>
    <trkpt lat="42.835313" lon="-0.483940"><ele>1954.5</ele></trkpt>
    <trkpt lat="42.835399" lon="-0.483903"><ele>1955.5</ele></trkpt>
    <trkpt lat="42.835614" lon="-0.483743"><ele>1957.75</ele></trkpt>
    <trkpt lat="42.835705" lon="-0.483636"><ele>1959.25</ele></trkpt>
    <trkpt lat="42.835764" lon="-0.483587"><ele>1959.5</ele></trkpt>
    <trkpt lat="42.835820" lon="-0.483498"><ele>1959.5</ele></trkpt>
    <trkpt lat="42.835880" lon="-0.483379"><ele>1958.25</ele></trkpt>
    <trkpt lat="42.835963" lon="-0.483299"><ele>1956.5</ele></trkpt>
    <trkpt lat="42.836064" lon="-0.483248"><ele>1953.75</ele></trkpt>
    <trkpt lat="42.836108" lon="-0.483241"><ele>1952.5</ele></trkpt>
    <trkpt lat="42.836097" lon="-0.483088"><ele>1949.25</ele></trkpt>
    <trkpt lat="42.835943" lon="-0.482714"><ele>1941.5</ele></trkpt>
    <trkpt lat="42.835911" lon="-0.482651"><ele>1939.75</ele></trkpt>
    <trkpt lat="42.835907" lon="-0.482628"><ele>1939.0</ele></trkpt>
    <trkpt lat="42.835942" lon="-0.482623"><ele>1937.75</ele></trkpt>
    <trkpt lat="42.835975" lon="-0.482649"><ele>1938.0</ele></trkpt>
    <trkpt lat="42.836090" lon="-0.482674"><ele>1935.5</ele></trkpt>
    <trkpt lat="42.836129" lon="-0.482698"><ele>1934.75</ele></trkpt>
    <trkpt lat="42.836177" lon="-0.482701"><ele>1932.5</ele></trkpt>
    <trkpt lat="42.836300" lon="-0.482787"><ele>1929.5</ele></trkpt>
    <trkpt lat="42.836402" lon="-0.482804"><ele>1925.25</ele></trkpt>
    <trkpt lat="42.836461" lon="-0.482859"><ele>1924.75</ele></trkpt>
    <trkpt lat="42.836569" lon="-0.482940"><ele>1922.5</ele></trkpt>
    <trkpt lat="42.836709" lon="-0.482907"><ele>1917.25</ele></trkpt>
    <trkpt lat="42.836796" lon="-0.482862"><ele>1917.0</ele></trkpt>
    <trkpt lat="42.836862" lon="-0.482746"><ele>1913.75</ele></trkpt>
    <trkpt lat="42.836877" lon="-0.482517"><ele>1907.5</ele></trkpt>
    <trkpt lat="42.836818" lon="-0.482532"><ele>1907.0</ele></trkpt>
    <trkpt lat="42.836795" lon="-0.482549"><ele>1907.25</ele></trkpt>
    <trkpt lat="42.836776" lon="-0.482541"><ele>1906.75</ele></trkpt>
    <trkpt lat="42.836730" lon="-0.482546"><ele>1906.0</ele></trkpt>
    <trkpt lat="42.836705" lon="-0.482533"><ele>1905.5</ele></trkpt>
    <trkpt lat="42.836760" lon="-0.482429"><ele>1903.25</ele></trkpt>
    <trkpt lat="42.836735" lon="-0.482292"><ele>1898.75</ele></trkpt>
    <trkpt lat="42.836761" lon="-0.482065"><ele>1893.75</ele></trkpt>
    <trkpt lat="42.836639" lon="-0.482050"><ele>1891.0</ele></trkpt>
    <trkpt lat="42.836608" lon="-0.481957"><ele>1888.75</ele></trkpt>
    <trkpt lat="42.836688" lon="-0.481711"><ele>1881.75</ele></trkpt>
    <trkpt lat="42.836534" lon="-0.481684"><ele>1881.0</ele></trkpt>
    <trkpt lat="42.836472" lon="-0.481631"><ele>1879.5</ele></trkpt>
    <trkpt lat="42.836435" lon="-0.481464"><ele>1874.25</ele></trkpt>
    <trkpt lat="42.836519" lon="-0.481427"><ele>1872.75</ele></trkpt>
    <trkpt lat="42.836558" lon="-0.481361"><ele>1870.25</ele></trkpt>
    <trkpt lat="42.836546" lon="-0.481330"><ele>1869.25</ele></trkpt>
    <trkpt lat="42.836579" lon="-0.481216"><ele>1865.25</ele></trkpt>
    <trkpt lat="42.836574" lon="-0.481168"><ele>1863.5</ele></trkpt>
    <trkpt lat="42.836591" lon="-0.481135"><ele>1862.0</ele></trkpt>
    <trkpt lat="42.836642" lon="-0.480829"><ele>1854.25</ele></trkpt>
    <trkpt lat="42.836657" lon="-0.480733"><ele>1853.25</ele></trkpt>
    <trkpt lat="42.836713" lon="-0.480675"><ele>1851.5</ele></trkpt>
    <trkpt lat="42.836892" lon="-0.480515"><ele>1846.0</ele></trkpt>
    <trkpt lat="42.836931" lon="-0.480495"><ele>1845.25</ele></trkpt>
    <trkpt lat="42.837004" lon="-0.480487"><ele>1844.75</ele></trkpt>
    <trkpt lat="42.837209" lon="-0.480327"><ele>1843.25</ele></trkpt>
    <trkpt lat="42.837272" lon="-0.480323"><ele>1842.0</ele></trkpt>
    <trkpt lat="42.837311" lon="-0.480276"><ele>1840.5</ele></trkpt>
    <trkpt lat="42.837413" lon="-0.480204"><ele>1836.5</ele></trkpt>
    <trkpt lat="42.837440" lon="-0.479893"><ele>1827.75</ele></trkpt>
    <trkpt lat="42.837476" lon="-0.479656"><ele>1818.75</ele></trkpt>
    <trkpt lat="42.837483" lon="-0.479458"><ele>1814.0</ele></trkpt>
    <trkpt lat="42.837500" lon="-0.479391"><ele>1810.75</ele></trkpt>
    <trkpt lat="42.837565" lon="-0.479447"><ele>1809.0</ele></trkpt>
    <trkpt lat="42.837626" lon="-0.479537"><ele>1808.25</ele></trkpt>
    <trkpt lat="42.837741" lon="-0.479616"><ele>1805.5</ele></trkpt>
    <trkpt lat="42.837896" lon="-0.479645"><ele>1801.0</ele></trkpt>
    <trkpt lat="42.837949" lon="-0.479734"><ele>1803.25</ele></trkpt>
    <trkpt lat="42.837992" lon="-0.479741"><ele>1802.0</ele></trkpt>
    <trkpt lat="42.838016" lon="-0.479698"><ele>1799.25</ele></trkpt>
    <trkpt lat="42.838015" lon="-0.479633"><ele>1796.5</ele></trkpt>
    <trkpt lat="42.838000" lon="-0.479609"><ele>1796.0</ele></trkpt>
    <trkpt lat="42.837966" lon="-0.479512"><ele>1792.75</ele></trkpt>
    <trkpt lat="42.837895" lon="-0.479396"><ele>1790.0</ele></trkpt>
    <trkpt lat="42.837851" lon="-0.479311"><ele>1787.75</ele></trkpt>
    <trkpt lat="42.837805" lon="-0.479255"><ele>1786.75</ele></trkpt>
    <trkpt lat="42.837815" lon="-0.479218"><ele>1785.0</ele></trkpt>
    <trkpt lat="42.837854" lon="-0.479206"><ele>1783.0</ele></trkpt>
    <trkpt lat="42.837959" lon="-0.479240"><ele>1781.25</ele></trkpt>
    <trkpt lat="42.838002" lon="-0.479239"><ele>1779.75</ele></trkpt>
    <trkpt lat="42.838012" lon="-0.479208"><ele>1778.0</ele></trkpt>
    <trkpt lat="42.837977" lon="-0.479179"><ele>1778.0</ele></trkpt>
    <trkpt lat="42.837946" lon="-0.479099"><ele>1776.0</ele></trkpt>
    <trkpt lat="42.837874" lon="-0.478997"><ele>1774.5</ele></trkpt>
    <trkpt lat="42.837833" lon="-0.478831"><ele>1770.0</ele></trkpt>
    <trkpt lat="42.837798" lon="-0.478772"><ele>1769.0</ele></trkpt>
    <trkpt lat="42.837758" lon="-0.478637"><ele>1766.5</ele></trkpt>
    <trkpt lat="42.837688" lon="-0.478361"><ele>1764.0</ele></trkpt>
    <trkpt lat="42.837654" lon="-0.478101"><ele>1761.0</ele></trkpt>
    <trkpt lat="42.837624" lon="-0.477996"><ele>1759.75</ele></trkpt>
    <trkpt lat="42.837663" lon="-0.477860"><ele>1757.5</ele></trkpt>
    <trkpt lat="42.837782" lon="-0.477581"><ele>1753.25</ele></trkpt>
    <trkpt lat="42.837805" lon="-0.477432"><ele>1751.25</ele></trkpt>
    <trkpt lat="42.837816" lon="-0.477228"><ele>1747.75</ele></trkpt>
    <trkpt lat="42.837845" lon="-0.477141"><ele>1745.75</ele></trkpt>
    <trkpt lat="42.837905" lon="-0.477011"><ele>1743.0</ele></trkpt>
    <trkpt lat="42.838004" lon="-0.476900"><ele>1741.75</ele></trkpt>
    <trkpt lat="42.838041" lon="-0.476848"><ele>1741.25</ele></trkpt>
    <trkpt lat="42.838073" lon="-0.476828"><ele>1740.75</ele></trkpt>
    <trkpt lat="42.838082" lon="-0.476772"><ele>1739.0</ele></trkpt>
    <trkpt lat="42.838000" lon="-0.476710"><ele>1736.75</ele></trkpt>
    <trkpt lat="42.837938" lon="-0.476675"><ele>1734.25</ele></trkpt>
    <trkpt lat="42.837895" lon="-0.476625"><ele>1731.5</ele></trkpt>
    <trkpt lat="42.837777" lon="-0.476663"><ele>1729.75</ele></trkpt>
    <trkpt lat="42.837654" lon="-0.476650"><ele>1728.25</ele></trkpt>
    <trkpt lat="42.837617" lon="-0.476552"><ele>1725.5</ele></trkpt>
    <trkpt lat="42.837740" lon="-0.476409"><ele>1722.5</ele></trkpt>
    <trkpt lat="42.837802" lon="-0.476297"><ele>1720.5</ele></trkpt>
    <trkpt lat="42.837917" lon="-0.476204"><ele>1719.25</ele></trkpt>
    <trkpt lat="42.837694" lon="-0.476274"><ele>1720.0</ele></trkpt>
    <trkpt lat="42.837514" lon="-0.476208"><ele>1719.5</ele></trkpt>
    <trkpt lat="42.837694" lon="-0.476274"><ele>1720.0</ele></trkpt>
    <trkpt lat="42.837917" lon="-0.476204"><ele>1719.25</ele></trkpt>
    <trkpt lat="42.838018" lon="-0.476151"><ele>1717.5</ele></trkpt>
    <trkpt lat="42.838120" lon="-0.476058"><ele>1714.0</ele></trkpt>
    <trkpt lat="42.838211" lon="-0.475972"><ele>1711.25</ele></trkpt>
    <trkpt lat="42.838287" lon="-0.475870"><ele>1708.5</ele></trkpt>
    <trkpt lat="42.838367" lon="-0.475794"><ele>1706.0</ele></trkpt>
    <trkpt lat="42.838412" lon="-0.475777"><ele>1704.75</ele></trkpt>
    <trkpt lat="42.838463" lon="-0.475794"><ele>1704.5</ele></trkpt>
    <trkpt lat="42.838529" lon="-0.475900"><ele>1705.75</ele></trkpt>
    <trkpt lat="42.838571" lon="-0.475934"><ele>1705.5</ele></trkpt>
    <trkpt lat="42.838611" lon="-0.475942"><ele>1704.75</ele></trkpt>
    <trkpt lat="42.838681" lon="-0.475901"><ele>1704.5</ele></trkpt>
    <trkpt lat="42.838958" lon="-0.475668"><ele>1700.0</ele></trkpt>
    <trkpt lat="42.839152" lon="-0.475342"><ele>1693.75</ele></trkpt>
    <trkpt lat="42.839349" lon="-0.475161"><ele>1691.0</ele></trkpt>
    <trkpt lat="42.839548" lon="-0.475005"><ele>1687.5</ele></trkpt>
    <trkpt lat="42.839744" lon="-0.474872"><ele>1684.75</ele></trkpt>
    <trkpt lat="42.839966" lon="-0.474596"><ele>1679.0</ele></trkpt>
    <trkpt lat="42.840208" lon="-0.474392"><ele>1675.0</ele></trkpt>
    <trkpt lat="42.840326" lon="-0.474365"><ele>1673.75</ele></trkpt>
    <trkpt lat="42.840488" lon="-0.474393"><ele>1671.5</ele></trkpt>
    <trkpt lat="42.840603" lon="-0.474390"><ele>1669.75</ele></trkpt>
    <trkpt lat="42.840683" lon="-0.474350"><ele>1668.75</ele></trkpt>
    <trkpt lat="42.841010" lon="-0.474043"><ele>1664.0</ele></trkpt>
    <trkpt lat="42.841197" lon="-0.473803"><ele>1661.25</ele></trkpt>
    <trkpt lat="42.841382" lon="-0.473522"><ele>1659.5</ele></trkpt>
    <trkpt lat="42.841508" lon="-0.473317"><ele>1658.75</ele></trkpt>
    <trkpt lat="42.841726" lon="-0.473055"><ele>1658.5</ele></trkpt>
    <trkpt lat="42.841774" lon="-0.472958"><ele>1658.75</ele></trkpt>
    <trkpt lat="42.841783" lon="-0.472868"><ele>1659.0</ele></trkpt>
    <trkpt lat="42.841783" lon="-0.472800"><ele>1658.75</ele></trkpt>
    <trkpt lat="42.841756" lon="-0.472573"><ele>1657.25</ele></trkpt>
    <trkpt lat="42.841610" lon="-0.472182"><ele>1653.5</ele></trkpt>
    <trkpt lat="42.841615" lon="-0.471881"><ele>1652.75</ele></trkpt>
    <trkpt lat="42.841633" lon="-0.471584"><ele>1650.75</ele></trkpt>
    <trkpt lat="42.841571" lon="-0.471221"><ele>1646.25</ele></trkpt>
    <trkpt lat="42.841577" lon="-0.470974"><ele>1644.5</ele></trkpt>
    <trkpt lat="42.841607" lon="-0.470679"><ele>1642.75</ele></trkpt>
    <trkpt lat="42.841616" lon="-0.470537"><ele>1642.0</ele></trkpt>
    <trkpt lat="42.841594" lon="-0.470379"><ele>1640.5</ele></trkpt>
    <trkpt lat="42.841597" lon="-0.470302"><ele>1639.75</ele></trkpt>
    <trkpt lat="42.841637" lon="-0.470197"><ele>1639.25</ele></trkpt>
    <trkpt lat="42.841688" lon="-0.470132"><ele>1638.75</ele></trkpt>
    <trkpt lat="42.841724" lon="-0.470114"><ele>1638.75</ele></trkpt>
    <trkpt lat="42.841760" lon="-0.470114"><ele>1638.75</ele></trkpt>
    <trkpt lat="42.841811" lon="-0.470135"><ele>1639.25</ele></trkpt>
    <trkpt lat="42.841928" lon="-0.470224"><ele>1641.5</ele></trkpt>
    <trkpt lat="42.842018" lon="-0.470256"><ele>1642.75</ele></trkpt>
    <trkpt lat="42.842274" lon="-0.470274"><ele>1644.25</ele></trkpt>
    <trkpt lat="42.842491" lon="-0.470322"><ele>1643.0</ele></trkpt>
    <trkpt lat="42.842739" lon="-0.470422"><ele>1638.25</ele></trkpt>
    <trkpt lat="42.843033" lon="-0.470497"><ele>1628.75</ele></trkpt>
    <trkpt lat="42.843239" lon="-0.470872"><ele>1628.75</ele></trkpt>
    <trkpt lat="42.843320" lon="-0.470961"><ele>1627.75</ele></trkpt>
    <trkpt lat="42.843436" lon="-0.471039"><ele>1624.25</ele></trkpt>
    <trkpt lat="42.843549" lon="-0.471228"><ele>1622.0</ele></trkpt>
    <trkpt lat="42.843580" lon="-0.471227"><ele>1620.0</ele></trkpt>
    <trkpt lat="42.843599" lon="-0.471187"><ele>1618.5</ele></trkpt>
    <trkpt lat="42.843539" lon="-0.470956"><ele>1617.75</ele></trkpt>
    <trkpt lat="42.843517" lon="-0.470842"><ele>1616.75</ele></trkpt>
    <trkpt lat="42.843520" lon="-0.470755"><ele>1615.25</ele></trkpt>
    <trkpt lat="42.843589" lon="-0.470535"><ele>1609.25</ele></trkpt>
    <trkpt lat="42.843634" lon="-0.470485"><ele>1607.5</ele></trkpt>
    <trkpt lat="42.843667" lon="-0.470475"><ele>1606.5</ele></trkpt>
    <trkpt lat="42.843736" lon="-0.470503"><ele>1604.75</ele></trkpt>
    <trkpt lat="42.843795" lon="-0.470547"><ele>1603.5</ele></trkpt>
    <trkpt lat="42.843856" lon="-0.470706"><ele>1603.5</ele></trkpt>
    <trkpt lat="42.843927" lon="-0.470786"><ele>1602.25</ele></trkpt>
    <trkpt lat="42.844101" lon="-0.470909"><ele>1599.25</ele></trkpt>
    <trkpt lat="42.844166" lon="-0.470918"><ele>1597.75</ele></trkpt>
    <trkpt lat="42.844218" lon="-0.470900"><ele>1596.5</ele></trkpt>
    <trkpt lat="42.844359" lon="-0.470710"><ele>1591.0</ele></trkpt>
    <trkpt lat="42.844443" lon="-0.470677"><ele>1589.0</ele></trkpt>
    <trkpt lat="42.844517" lon="-0.470663"><ele>1587.75</ele></trkpt>
    <trkpt lat="42.844579" lon="-0.470669"><ele>1586.75</ele></trkpt>
    <trkpt lat="42.844653" lon="-0.470722"><ele>1586.25</ele></trkpt>
    <trkpt lat="42.844862" lon="-0.470992"><ele>1581.5</ele></trkpt>
    <trkpt lat="42.844907" lon="-0.470995"><ele>1579.75</ele></trkpt>
    <trkpt lat="42.844961" lon="-0.470953"><ele>1578.5</ele></trkpt>
    <trkpt lat="42.845076" lon="-0.470752"><ele>1576.75</ele></trkpt>
    <trkpt lat="42.845099" lon="-0.470633"><ele>1575.75</ele></trkpt>
    <trkpt lat="42.845102" lon="-0.470241"><ele>1572.5</ele></trkpt>
    <trkpt lat="42.845079" lon="-0.470135"><ele>1571.0</ele></trkpt>
    <trkpt lat="42.845012" lon="-0.470029"><ele>1569.5</ele></trkpt>
    <trkpt lat="42.844974" lon="-0.469924"><ele>1569.75</ele></trkpt>
    <trkpt lat="42.844985" lon="-0.469827"><ele>1570.25</ele></trkpt>
    <trkpt lat="42.845055" lon="-0.469604"><ele>1571.5</ele></trkpt>
    <trkpt lat="42.845103" lon="-0.469330"><ele>1573.75</ele></trkpt>
    <trkpt lat="42.845146" lon="-0.469144"><ele>1575.0</ele></trkpt>
    <trkpt lat="42.845178" lon="-0.469069"><ele>1575.25</ele></trkpt>
    <trkpt lat="42.845281" lon="-0.468997"><ele>1575.25</ele></trkpt>
    <trkpt lat="42.845351" lon="-0.468919"><ele>1575.25</ele></trkpt>
    <trkpt lat="42.845407" lon="-0.468732"><ele>1575.75</ele></trkpt>
    <trkpt lat="42.845457" lon="-0.468238"><ele>1577.5</ele></trkpt>
    <trkpt lat="42.845505" lon="-0.468065"><ele>1577.75</ele></trkpt>
    <trkpt lat="42.845577" lon="-0.467896"><ele>1577.25</ele></trkpt>
    <trkpt lat="42.845713" lon="-0.467711"><ele>1576.5</ele></trkpt>
    <trkpt lat="42.845787" lon="-0.467597"><ele>1575.75</ele></trkpt>
    <trkpt lat="42.845832" lon="-0.467498"><ele>1574.75</ele></trkpt>
    <trkpt lat="42.845878" lon="-0.467340"><ele>1574.25</ele></trkpt>
    <trkpt lat="42.845917" lon="-0.467128"><ele>1573.25</ele></trkpt>
    <trkpt lat="42.845967" lon="-0.466923"><ele>1572.25</ele></trkpt>
    <trkpt lat="42.845982" lon="-0.466805"><ele>1571.75</ele></trkpt>
    <trkpt lat="42.845969" lon="-0.466531"><ele>1571.25</ele></trkpt>
    <trkpt lat="42.845994" lon="-0.466397"><ele>1570.5</ele></trkpt>
    <trkpt lat="42.846018" lon="-0.466320"><ele>1571.0</ele></trkpt>
    <trkpt lat="42.846358" lon="-0.465971"><ele>1569.25</ele></trkpt>
    <trkpt lat="42.846466" lon="-0.465827"><ele>1568.75</ele></trkpt>
    <trkpt lat="42.846910" lon="-0.465408"><ele>1566.75</ele></trkpt>
    <trkpt lat="42.847229" lon="-0.465040"><ele>1566.0</ele></trkpt>
    <trkpt lat="42.847347" lon="-0.464940"><ele>1565.5</ele></trkpt>
    <trkpt lat="42.847546" lon="-0.464845"><ele>1564.5</ele></trkpt>
    <trkpt lat="42.847752" lon="-0.464799"><ele>1562.5</ele></trkpt>
    <trkpt lat="42.848158" lon="-0.464646"><ele>1556.75</ele></trkpt>
    <trkpt lat="42.848497" lon="-0.464149"><ele>1551.0</ele></trkpt>
    <trkpt lat="42.848913" lon="-0.463654"><ele>1543.0</ele></trkpt>
    <trkpt lat="42.849011" lon="-0.463474"><ele>1542.75</ele></trkpt>
    <trkpt lat="42.849418" lon="-0.462942"><ele>1542.0</ele></trkpt>
    <trkpt lat="42.849662" lon="-0.462705"><ele>1541.5</ele></trkpt>
    <trkpt lat="42.849867" lon="-0.462558"><ele>1541.0</ele></trkpt>
    <trkpt lat="42.850176" lon="-0.462414"><ele>1541.0</ele></trkpt>
    <trkpt lat="42.850494" lon="-0.462212"><ele>1541.0</ele></trkpt>
    <trkpt lat="42.851073" lon="-0.461414"><ele>1540.0</ele></trkpt>
    <trkpt lat="42.852039" lon="-0.460727"><ele>1539.0</ele></trkpt>
    <trkpt lat="42.852270" lon="-0.460448"><ele>1539.0</ele></trkpt>
    <trkpt lat="42.852676" lon="-0.460106"><ele>1539.0</ele></trkpt>
    <trkpt lat="42.852761" lon="-0.459989"><ele>1539.0</ele></trkpt>
    <trkpt lat="42.852812" lon="-0.459842"><ele>1539.0</ele></trkpt>
    <trkpt lat="42.852863" lon="-0.459584"><ele>1538.5</ele></trkpt>
    <trkpt lat="42.852935" lon="-0.459348"><ele>1538.0</ele></trkpt>
    <trkpt lat="42.853016" lon="-0.459194"><ele>1538.0</ele></trkpt>
    <trkpt lat="42.853211" lon="-0.458947"><ele>1538.0</ele></trkpt>
    <trkpt lat="42.853289" lon="-0.458808"><ele>1538.0</ele></trkpt>
    <trkpt lat="42.853462" lon="-0.458433"><ele>1538.0</ele></trkpt>
    <trkpt lat="42.853543" lon="-0.458349"><ele>1538.0</ele></trkpt>
    <trkpt lat="42.853587" lon="-0.458282"><ele>1537.75</ele></trkpt>
    <trkpt lat="42.853593" lon="-0.458192"><ele>1538.0</ele></trkpt>
    <trkpt lat="42.853570" lon="-0.458060"><ele>1538.0</ele></trkpt>
    <trkpt lat="42.853581" lon="-0.458002"><ele>1538.0</ele></trkpt>
    <trkpt lat="42.853604" lon="-0.457960"><ele>1538.0</ele></trkpt>
    <trkpt lat="42.853648" lon="-0.457936"><ele>1538.0</ele></trkpt>
    <trkpt lat="42.853699" lon="-0.457941"><ele>1538.0</ele></trkpt>
    <trkpt lat="42.853781" lon="-0.457973"><ele>1538.25</ele></trkpt>
    <trkpt lat="42.853877" lon="-0.458044"><ele>1538.75</ele></trkpt>
    <trkpt lat="42.853945" lon="-0.458032"><ele>1539.25</ele></trkpt>
    <trkpt lat="42.854018" lon="-0.457971"><ele>1539.25</ele></trkpt>
    <trkpt lat="42.854157" lon="-0.457774"><ele>1538.75</ele></trkpt>
    <trkpt lat="42.854250" lon="-0.457740"><ele>1539.75</ele></trkpt>
    <trkpt lat="42.854325" lon="-0.457690"><ele>1540.25</ele></trkpt>
    <trkpt lat="42.854427" lon="-0.457578"><ele>1539.5</ele></trkpt>
    <trkpt lat="42.854462" lon="-0.457553"><ele>1539.5</ele></trkpt>
    <trkpt lat="42.854538" lon="-0.457539"><ele>1541.75</ele></trkpt>
    <trkpt lat="42.854572" lon="-0.457543"><ele>1543.0</ele></trkpt>
    <trkpt lat="42.854550" lon="-0.457571"><ele>1542.75</ele></trkpt>
    <trkpt lat="42.854507" lon="-0.457602"><ele>1541.5</ele></trkpt>
    <trkpt lat="42.854550" lon="-0.457571"><ele>1542.75</ele></trkpt>
    <trkpt lat="42.854572" lon="-0.457543"><ele>1543.0</ele></trkpt>
    <trkpt lat="42.854695" lon="-0.457486"><ele>1545.75</ele></trkpt>
    <trkpt lat="42.854741" lon="-0.457455"><ele>1546.25</ele></trkpt>
    <trkpt lat="42.855201" lon="-0.456935"><ele>1541.25</ele></trkpt>
    <trkpt lat="42.855246" lon="-0.456897"><ele>1541.25</ele></trkpt>
    <trkpt lat="42.855291" lon="-0.456872"><ele>1541.25</ele></trkpt>
    <trkpt lat="42.855343" lon="-0.456822"><ele>1540.25</ele></trkpt>
    <trkpt lat="42.855396" lon="-0.456718"><ele>1537.5</ele></trkpt>
    <trkpt lat="42.855505" lon="-0.456516"><ele>1532.0</ele></trkpt>
    <trkpt lat="42.855777" lon="-0.456142"><ele>1519.5</ele></trkpt>
    <trkpt lat="42.855830" lon="-0.456097"><ele>1517.75</ele></trkpt>
    <trkpt lat="42.856138" lon="-0.456109"><ele>1513.75</ele></trkpt>
    <trkpt lat="42.856334" lon="-0.456154"><ele>1514.0</ele></trkpt>
    <trkpt lat="42.856410" lon="-0.456162"><ele>1513.75</ele></trkpt>
    <trkpt lat="42.856487" lon="-0.456151"><ele>1513.25</ele></trkpt>
    <trkpt lat="42.856743" lon="-0.456063"><ele>1508.75</ele></trkpt>
    <trkpt lat="42.857069" lon="-0.455921"><ele>1500.25</ele></trkpt>
    <trkpt lat="42.857185" lon="-0.455914"><ele>1499.25</ele></trkpt>
    <trkpt lat="42.857211" lon="-0.455895"><ele>1498.25</ele></trkpt>
    <trkpt lat="42.857227" lon="-0.455867"><ele>1496.75</ele></trkpt>
    <trkpt lat="42.857230" lon="-0.455831"><ele>1494.75</ele></trkpt>
    <trkpt lat="42.857209" lon="-0.455679"><ele>1492.25</ele></trkpt>
    <trkpt lat="42.857219" lon="-0.455579"><ele>1490.25</ele></trkpt>
    <trkpt lat="42.857238" lon="-0.455535"><ele>1490.0</ele></trkpt>
    <trkpt lat="42.857274" lon="-0.455503"><ele>1490.25</ele></trkpt>
    <trkpt lat="42.857321" lon="-0.455486"><ele>1489.75</ele></trkpt>
    <trkpt lat="42.857406" lon="-0.455472"><ele>1488.5</ele></trkpt>
    <trkpt lat="42.857452" lon="-0.455449"><ele>1488.0</ele></trkpt>
    <trkpt lat="42.857592" lon="-0.455334"><ele>1487.5</ele></trkpt>
    <trkpt lat="42.857704" lon="-0.455215"><ele>1486.5</ele></trkpt>
    <trkpt lat="42.857921" lon="-0.454912"><ele>1487.5</ele></trkpt>
    <trkpt lat="42.857969" lon="-0.454821"><ele>1488.75</ele></trkpt>
    <trkpt lat="42.858000" lon="-0.454723"><ele>1491.25</ele></trkpt>
    <trkpt lat="42.858020" lon="-0.454576"><ele>1495.0</ele></trkpt>
    <trkpt lat="42.858046" lon="-0.454503"><ele>1496.5</ele></trkpt>
    <trkpt lat="42.858104" lon="-0.454455"><ele>1496.5</ele></trkpt>
    <trkpt lat="42.858191" lon="-0.454419"><ele>1496.0</ele></trkpt>
    <trkpt lat="42.858292" lon="-0.454336"><ele>1497.25</ele></trkpt>
    <trkpt lat="42.858342" lon="-0.454312"><ele>1497.5</ele></trkpt>
    <trkpt lat="42.858402" lon="-0.454297"><ele>1497.25</ele></trkpt>
    <trkpt lat="42.858457" lon="-0.454305"><ele>1496.0</ele></trkpt>
    <trkpt lat="42.858687" lon="-0.454381"><ele>1488.75</ele></trkpt>
    <trkpt lat="42.858802" lon="-0.454450"><ele>1483.75</ele></trkpt>
    <trkpt lat="42.859086" lon="-0.454450"><ele>1479.75</ele></trkpt>
    <trkpt lat="42.859289" lon="-0.454422"><ele>1477.75</ele></trkpt>
    <trkpt lat="42.859521" lon="-0.454444"><ele>1472.75</ele></trkpt>
    <trkpt lat="42.859960" lon="-0.454363"><ele>1468.25</ele></trkpt>
    <trkpt lat="42.860396" lon="-0.454367"><ele>1461.0</ele></trkpt>
    <trkpt lat="42.860530" lon="-0.454318"><ele>1460.0</ele></trkpt>
    <trkpt lat="42.860656" lon="-0.454202"><ele>1460.0</ele></trkpt>
    <trkpt lat="42.861050" lon="-0.454209"><ele>1450.25</ele></trkpt>
    <trkpt lat="42.861336" lon="-0.454113"><ele>1443.75</ele></trkpt>
    <trkpt lat="42.861556" lon="-0.453873"><ele>1440.5</ele></trkpt>
    <trkpt lat="42.861753" lon="-0.453506"><ele>1439.75</ele></trkpt>
    <trkpt lat="42.862035" lon="-0.453048"><ele>1439.0</ele></trkpt>
    <trkpt lat="42.862401" lon="-0.452593"><ele>1437.25</ele></trkpt>
    <trkpt lat="42.862551" lon="-0.452345"><ele>1438.0</ele></trkpt>
    <trkpt lat="42.862829" lon="-0.452090"><ele>1438.75</ele></trkpt>
    <trkpt lat="42.862881" lon="-0.452064"><ele>1438.75</ele></trkpt>
    <trkpt lat="42.863244" lon="-0.452002"><ele>1436.25</ele></trkpt>
    <trkpt lat="42.863449" lon="-0.451937"><ele>1434.75</ele></trkpt>
    <trkpt lat="42.863583" lon="-0.451834"><ele>1434.0</ele></trkpt>
    <trkpt lat="42.863662" lon="-0.451763"><ele>1432.75</ele></trkpt>
    <trkpt lat="42.863859" lon="-0.451654"><ele>1428.0</ele></trkpt>
    <trkpt lat="42.863986" lon="-0.451566"><ele>1424.25</ele></trkpt>
    <trkpt lat="42.864117" lon="-0.451433"><ele>1420.5</ele></trkpt>
    <trkpt lat="42.864191" lon="-0.451322"><ele>1418.75</ele></trkpt>
    <trkpt lat="42.864242" lon="-0.451198"><ele>1418.25</ele></trkpt>
    <trkpt lat="42.864269" lon="-0.451040"><ele>1418.0</ele></trkpt>
    <trkpt lat="42.864260" lon="-0.450699"><ele>1419.0</ele></trkpt>
    <trkpt lat="42.864280" lon="-0.450566"><ele>1418.5</ele></trkpt>
    <trkpt lat="42.864350" lon="-0.450334"><ele>1417.0</ele></trkpt>
    <trkpt lat="42.864365" lon="-0.450234"><ele>1417.25</ele></trkpt>
    <trkpt lat="42.864352" lon="-0.450074"><ele>1418.75</ele></trkpt>
    <trkpt lat="42.864375" lon="-0.449954"><ele>1419.5</ele></trkpt>
    <trkpt lat="42.864413" lon="-0.449874"><ele>1420.0</ele></trkpt>
    <trkpt lat="42.864462" lon="-0.449817"><ele>1420.25</ele></trkpt>
    <trkpt lat="42.864510" lon="-0.449794"><ele>1420.75</ele></trkpt>
    <trkpt lat="42.864554" lon="-0.449800"><ele>1420.75</ele></trkpt>
    <trkpt lat="42.864581" lon="-0.449819"><ele>1420.5</ele></trkpt>
    <trkpt lat="42.864709" lon="-0.449932"><ele>1419.0</ele></trkpt>
    <trkpt lat="42.864965" lon="-0.450198"><ele>1418.5</ele></trkpt>
    <trkpt lat="42.865240" lon="-0.450432"><ele>1418.25</ele></trkpt>
    <trkpt lat="42.865312" lon="-0.450473"><ele>1418.0</ele></trkpt>
    <trkpt lat="42.865391" lon="-0.450489"><ele>1418.0</ele></trkpt>
    <trkpt lat="42.865486" lon="-0.450482"><ele>1418.25</ele></trkpt>
    <trkpt lat="42.865589" lon="-0.450447"><ele>1418.75</ele></trkpt>
    <trkpt lat="42.865701" lon="-0.450374"><ele>1419.5</ele></trkpt>
    <trkpt lat="42.865975" lon="-0.450090"><ele>1423.0</ele></trkpt>
    <trkpt lat="42.866093" lon="-0.450012"><ele>1423.75</ele></trkpt>
    <trkpt lat="42.866172" lon="-0.449988"><ele>1423.5</ele></trkpt>
    <trkpt lat="42.866350" lon="-0.449971"><ele>1422.0</ele></trkpt>
    <trkpt lat="42.866498" lon="-0.450011"><ele>1420.25</ele></trkpt>
    <trkpt lat="42.866673" lon="-0.450088"><ele>1418.0</ele></trkpt>
    <trkpt lat="42.866914" lon="-0.450148"><ele>1416.25</ele></trkpt>
    <trkpt lat="42.867168" lon="-0.450282"><ele>1413.75</ele></trkpt>
    <trkpt lat="42.867270" lon="-0.450317"><ele>1413.5</ele></trkpt>
    <trkpt lat="42.867373" lon="-0.450322"><ele>1413.75</ele></trkpt>
    <trkpt lat="42.867451" lon="-0.450301"><ele>1414.5</ele></trkpt>
    <trkpt lat="42.867558" lon="-0.450241"><ele>1415.5</ele></trkpt>
    <trkpt lat="42.867656" lon="-0.450168"><ele>1417.0</ele></trkpt>
    <trkpt lat="42.867864" lon="-0.449956"><ele>1419.5</ele></trkpt>
    <trkpt lat="42.868036" lon="-0.449736"><ele>1419.75</ele></trkpt>
    <trkpt lat="42.868119" lon="-0.449573"><ele>1419.0</ele></trkpt>
    <trkpt lat="42.868176" lon="-0.449413"><ele>1418.0</ele></trkpt>
    <trkpt lat="42.868233" lon="-0.449266"><ele>1417.0</ele></trkpt>
    <trkpt lat="42.868259" lon="-0.449143"><ele>1416.75</ele></trkpt>
    <trkpt lat="42.868302" lon="-0.448983"><ele>1416.25</ele></trkpt>
    <trkpt lat="42.868437" lon="-0.448635"><ele>1416.0</ele></trkpt>
    <trkpt lat="42.868510" lon="-0.448434"><ele>1416.25</ele></trkpt>
    <trkpt lat="42.868537" lon="-0.448405"><ele>1416.25</ele></trkpt>
    <trkpt lat="42.868304" lon="-0.448034"><ele>1426.75</ele></trkpt>
  </trkseg></trk>
</gpx>
